name,category,full_address,latitude,longitude,city,state,zip_code,phone_number,website,google_maps_url,mailing_address,contact_person,email
Farmer Boy,restaurant,"2558 Cleveland Rd, Wooster, OH 44691, USA",40.8309644,-81.93134189999999,Wooster,OH,44691,(330) 345-7799,,https://maps.google.com/?cid=3771724799321444702,,,
Mariola Italian,restaurant,"365 E Liberty St #100, Wooster, OH 44691, USA",40.7985961,-81.935366,Wooster,OH,44691,(330) 845-8889,http://www.mariolaitalian.com/,https://maps.google.com/?cid=10443818323912670340,,,
Olde Jaol Steakhouse and Tavern,restaurant,"215 N Walnut St, Wooster, OH 44691, USA",40.7996597,-81.94165799999999,Wooster,OH,44691,(330) 262-3333,https://www.oldejaol.com/,https://maps.google.com/?cid=303714742310527210,,,
The Leaf Restaurant,restaurant,"203 W Liberty St, Wooster, OH 44691, USA",40.79803,-81.94170539999999,Wooster,OH,44691,(330) 804-0126,http://theleaf.restaurant/,https://maps.google.com/?cid=17576269968844403992,,,
The Market Grill & Tavern,restaurant,"234 S Market St, Wooster, OH 44691, USA",40.796274,-81.9391378,Wooster,OH,44691,(330) 201-9640,,https://maps.google.com/?cid=8342460248100593627,,,
Muddy's,restaurant,"335 E Liberty St, Wooster, OH 44691, USA",40.798621,-81.93562849999999,Wooster,OH,44691,(330) 264-2604,https://www.muddyswooster.net/,https://maps.google.com/?cid=15182309109801276021,,,
Bishops Restaurant,restaurant,"1638 Old Columbus Rd, Wooster, OH 44691, USA",40.777892,-81.963574,Wooster,OH,44691,(330) 601-0204,https://bishopsfamilyrestaurant0140.s4shops.com/,https://maps.google.com/?cid=11338041549518276985,,,
The Barn Restaurant,restaurant,"877 W Main St, Smithville, OH 44677, USA",40.856719,-81.8705351,Smithville,OH,44677,(330) 669-2555,http://www.thebarnrest.com/,https://maps.google.com/?cid=11942561378616247408,,,
LongHorn Steakhouse,restaurant,"4049 Burbank Rd, Wooster, OH 44691, USA",40.849089,-81.945351,Wooster,OH,44691,(330) 262-0502,https://www.longhornsteakhouse.com/locations/oh/wooster/wooster/5153?cmpid=br:lh_ag:ie_ch:loc_ca:LHGMB_sn:gmb_gt:wooster-oh-5153_pl:locurl_rd:1112,https://maps.google.com/?cid=81384917359293598,,,
Brick Street Kitchen & Taproom,restaurant,"226 W Market St, Orrville, OH 44667, USA",40.84043130000001,-81.7662481,Orrville,OH,44667,(330) 930-3200,http://brickstreetkt.com/,https://maps.google.com/?cid=9405148106379449387,,,
31 bistro,restaurant,"1931 Portage Rd, Wooster, OH 44691, USA",40.82811359999999,-81.9119649,Wooster,OH,44691,(330) 804-0070,https://www.31bistrowooster.com/,https://maps.google.com/?cid=3333203299791560229,,,
Leroy's of Wooster,restaurant,"400 Palmer St, Wooster, OH 44691, USA",40.8017528,-81.92516599999999,Wooster,OH,44691,(330) 264-9913,https://www.facebook.com/LeroysWooster?mibextid=ZbWKwL,https://maps.google.com/?cid=6116050231357384304,,,
Beef 'O' Brady's,restaurant,"244 S Market St, Wooster, OH 44691, USA",40.7960151,-81.93896579999999,Wooster,OH,44691,(330) 264-2226,https://www.beefobradys.com/wooster,https://maps.google.com/?cid=14081232456711812118,,,
The City Square Steakhouse,restaurant,"140 S Market St, Wooster, OH 44691, USA",40.79747159999999,-81.9393979,Wooster,OH,44691,(330) 262-2489,https://www.citysquaresteakhouse.com/,https://maps.google.com/?cid=4157698552974798176,,,
Wild Fox Cafe,restaurant,"5034 Kidron Rd, Apple Creek, OH 44606, USA",40.7385311,-81.7442009,Apple Creek,OH,44606,(330) 663-6864,,https://maps.google.com/?cid=6148056245100537128,,,
Green Leaf Restaurant,restaurant,"2905 Cleveland Rd, Wooster, OH 44691, USA",40.83542920000001,-81.9290075,Wooster,OH,44691,(330) 345-6797,https://www.facebook.com/GLRestaurant,https://maps.google.com/?cid=7464424451450786555,,,
The Curry Pot,restaurant,"206 Beall Ave, Wooster, OH 44691, USA",40.8005376,-81.9349371,Wooster,OH,44691,(330) 464-9708,https://www.thecurrypot.org/,https://maps.google.com/?cid=14201972205585597118,,,
Ugly Duck,restaurant,"3331 Lincoln Way E, Wooster, OH 44691, USA",40.79544829999999,-81.90026089999999,Wooster,OH,44691,(330) 262-5654,http://www.myuglyduck.com/,https://maps.google.com/?cid=13851849015436350090,,,
Broken Rocks Café & Bakery,restaurant,"123 E Liberty St, Wooster, OH 44691, USA",40.798035,-81.93927699999999,Wooster,OH,44691,(330) 263-2949,http://www.brokenrockscafe.com/,https://maps.google.com/?cid=2028021065918995861,,,
Hard Hat Restaurant,restaurant,"845 Spruce St, Wooster, OH 44691, USA",40.78932299999999,-81.94102199999999,Wooster,OH,44691,(330) 262-5891,,https://maps.google.com/?cid=11618626418028793816,,,
TJ’s Restaurant,restaurant,"359 W Liberty St, Wooster, OH 44691, USA",40.7977371,-81.94467159999999,Wooster,OH,44691,(330) 264-6263,http://www.tjsrestaurants.com/,https://maps.google.com/?cid=520595273398924219,,,
Osaka Asian Restaurant,restaurant,"3729 Burbank Rd, Wooster, OH 44691, USA",40.84568549999999,-81.9411444,Wooster,OH,44691,(330) 601-1113,http://www.osakaoh.com/,https://maps.google.com/?cid=12819779474144340899,,,
Rox Gastropub,restaurant,"119 E Liberty St, Wooster, OH 44691, USA",40.79809909999999,-81.9393398,Wooster,OH,44691,(330) 263-2949,http://roxgastropub.com/contact-us.html,https://maps.google.com/?cid=2377349534511524199,,,
Andio Sisters,restaurant,"140 S Walnut St, Wooster, OH 44691, USA",40.7972613,-81.9411401,Wooster,OH,44691,(330) 988-9300,http://andiosisters.com/,https://maps.google.com/?cid=11028608249007636792,,,
Penn Station East Coast Subs,restaurant,"4124 Burbank Rd Suite 103, Wooster, OH 44691, USA",40.84953400000001,-81.9471281,Wooster,OH,44691,(330) 601-0161,https://www.penn-station.com/,https://maps.google.com/?cid=4955967399982691610,,,
Hero House,restaurant,"141 N Bever St, Wooster, OH 44691, USA",40.7995858,-81.93683519999999,Wooster,OH,44691,(330) 262-8166,,https://maps.google.com/?cid=14246113026235298020,,,
Local Roots Market & Café,restaurant,"140 S Walnut St, Wooster, OH 44691, USA",40.79722220000001,-81.9411111,Wooster,OH,44691,(330) 263-5336,http://www.localrootswooster.com/,https://maps.google.com/?cid=7424488131517633858,,,
El Tapatio Mexican Restaurant,restaurant,"3860 Cleveland Rd, Wooster, OH 44691, USA",40.84666660000001,-81.9283517,Wooster,OH,44691,(330) 601-1100,http://www.eltapatiowooster.com/,https://maps.google.com/?cid=15668695074734549455,,,
Coccia House,restaurant,"764 Pittsburgh Ave, Wooster, OH 44691, USA",40.7984014,-81.92849210000001,Wooster,OH,44691,(330) 262-7136,http://www.cocciahouse.com/,https://maps.google.com/?cid=14786207274881868416,,,
Grigio Wine & Cocktail Bar,restaurant,"211 S Market St, Wooster, OH 44691, USA",40.7966601,-81.9397192,Wooster,OH,44691,(330) 804-0198,https://www.grigiowooster.com/,https://maps.google.com/?cid=4078316494666152070,,,
C. W. Burgerstein’s,restaurant,"359 W Liberty St, Wooster, OH 44691, USA",40.79767469999999,-81.94467120000002,Wooster,OH,44691,(330) 264-8165,http://www.tjsrestaurants.com/,https://maps.google.com/?cid=11029082919114755576,,,
El Campesino,restaurant,"177 W Milltown Rd C, Wooster, OH 44691, USA",40.8441876,-81.9418658,Wooster,OH,44691,(330) 345-6263,https://campesinowooster.com/,https://maps.google.com/?cid=13315648335640788827,,,
BayLobsters Café & Fish Market,restaurant,"3423 Cleveland Rd, Wooster, OH 44691, USA",40.84179899999999,-81.92888599999999,Wooster,OH,44691,(330) 601-1200,https://www.baylobsterswooster.com/,https://maps.google.com/?cid=3128959669555423908,,,
Dravenstott's Restaurant,restaurant,"410 W High St, Orrville, OH 44667, USA",40.843219,-81.768892,Orrville,OH,44667,(330) 682-0776,http://www.dravenstotts.com/,https://maps.google.com/?cid=10836858773446420693,,,
Red Lobster,restaurant,"WAYNE TOWNE PLAZA, 3805 Burbank Rd, Wooster, OH 44691, USA",40.84611599999999,-81.943466,Wooster,OH,44691,(330) 345-4005,https://www.redlobster.com/seafood-restaurants/locations/oh/wooster/3805-burbank-road,https://maps.google.com/?cid=10338667932248487439,,,
Applebee's Grill + Bar,restaurant,"3989 Burbank Rd, Wooster, OH 44691, USA",40.848364,-81.94493899999999,Wooster,OH,44691,(330) 345-8900,https://restaurants.applebees.com/en-us/oh/wooster/3989-burbank-road-88031?utm_source=google&utm_medium=organic&utm_campaign=google_my_business&utm_term=88031&utm_content=website,https://maps.google.com/?cid=10078574945386048718,,,
Gionino's Pizzeria,restaurant,"120 N Buckeye St, Wooster, OH 44691, USA",40.7989056,-81.9386177,Wooster,OH,44691,(330) 262-0093,http://www.gioninos.com/,https://maps.google.com/?cid=4738077828635079330,,,
Des Dutch Essenhaus,restaurant,"176 N Market St, Shreve, OH 44676, USA",40.6819824,-82.0222012,Shreve,OH,44676,(330) 567-2212,https://desdutchessenhaus.com/,https://maps.google.com/?cid=8247758690223158117,,,
Pho Bar,restaurant,"322 W Liberty St, Wooster, OH 44691, USA",40.7972773,-81.94363229999999,Wooster,OH,44691,(330) 601-0017,http://woosterphobar.uorder.io/,https://maps.google.com/?cid=9371295692483067624,,,
Spoon Bar & Deli,restaurant,"144 W Liberty St, Wooster, OH 44691, USA",40.79784489999999,-81.94117709999999,Wooster,OH,44691,(330) 262-0880,https://www.spoonbaranddeli.com/,https://maps.google.com/?cid=6627229537908523543,,,
Omahoma Bobs BBQ,restaurant,"128 S Market St, Wooster, OH 44691, USA",40.79769099999999,-81.939371,Wooster,OH,44691,(330) 262-9871,http://www.omahomabobsbbq.com/,https://maps.google.com/?cid=13123715898776433206,,,
Undergrounds Café & Coffee House,restaurant,"146 E Liberty St, Wooster, OH 44691, USA",40.7984864,-81.938812,Wooster,OH,44691,(330) 804-8400,http://www.undergrounds.cafe/,https://maps.google.com/?cid=7133527847288947414,,,
Pine Tree Barn,restaurant,"4374 Shreve Rd, Wooster, OH 44691, USA",40.7448981,-81.98394809999999,Wooster,OH,44691,(330) 264-1014,https://www.pinetreebarn.com/,https://maps.google.com/?cid=18406055565291297285,,,
Gigi's Diner,restaurant,"1 N Main St, Marshallville, OH 44645, USA",40.900989,-81.7338947,Marshallville,OH,44645,(330) 855-5422,,https://maps.google.com/?cid=11474541977337866060,,,
Basil Asian Bistro,restaurant,"145 W Liberty St, Wooster, OH 44691, USA",40.7981303,-81.9412954,Wooster,OH,44691,(330) 601-0885,http://www.basilasianrestaurant.com/,https://maps.google.com/?cid=6809034873068884593,,,
Orrville Sports Pub,restaurant,"219 Hostetler Rd, Orrville, OH 44667, USA",40.8548531,-81.7659272,Orrville,OH,44667,(330) 571-0043,,https://maps.google.com/?cid=14104537870106634561,,,
Que Pasa,restaurant,"525 N Main St, Orrville, OH 44667, USA",40.84498059999999,-81.7645361,Orrville,OH,44667,(330) 683-0083,http://quepasaorrville.com/,https://maps.google.com/?cid=11700518506781701604,,,
Wild Ginger China Bistro,restaurant,"3694 Burbank Rd, Wooster, OH 44691, USA",40.844275,-81.943599,Wooster,OH,44691,(330) 345-6388,,https://maps.google.com/?cid=15385440184806736391,,,
Old Carolina Barbecue Company,restaurant,"1330 N Main St, Orrville, OH 44667, USA",40.8546218,-81.762886,Orrville,OH,44667,(330) 930-0300,https://oldcarolina.com/?olonwp=JjBtp_vMLk25gkYh_bnoiQ,https://maps.google.com/?cid=10826375633289522667,,,
Lincoln Tavern,restaurant,"847 E Bowman St, Wooster, OH 44691, USA",40.80462339999999,-81.9281736,Wooster,OH,44691,(330) 264-3344,,https://maps.google.com/?cid=13760327840937047808,,,
"Lionsgate Pizza, Ice Cream & Deli",restaurant,"3355 S Columbus Rd, Wooster, OH 44691, USA",40.7590468,-81.9913048,Wooster,OH,44691,(330) 347-8773,,https://maps.google.com/?cid=11674839113302539390,,,
"The Golden Bear - Apple Creek, OH",restaurant,"546 W Main St, Apple Creek, OH 44606, USA",40.7547222,-81.8427778,Apple Creek,OH,44606,(330) 698-1423,https://www.facebook.com/thegoldenbearac,https://maps.google.com/?cid=4076202878998539645,,,
Oma Gourd - Handcrafted Tacos,restaurant,"140 S Walnut St, Wooster, OH 44691, USA",40.7972613,-81.9411401,Wooster,OH,44691,,http://omagourd.com/,https://maps.google.com/?cid=15264494454828761383,,,
Asian Wok,restaurant,"3786 Burbank Rd #350, Wooster, OH 44691, USA",40.8445054,-81.9454682,Wooster,OH,44691,(330) 263-1006,https://www.asianwokwooster.com/,https://maps.google.com/?cid=3989801768748239616,,,
Mrs J's,restaurant,"114 N Main St, Orrville, OH 44667, USA",40.8409278,-81.7641539,Orrville,OH,44667,(330) 683-0666,,https://maps.google.com/?cid=9411297147874744352,,,
Salsaroja Bar and Grill,restaurant,"150 W Liberty St, Wooster, OH 44691, USA",40.79782720000001,-81.9412742,Wooster,OH,44691,(330) 804-0010,http://salsarojabar.com/,https://maps.google.com/?cid=17318788078769079592,,,
Bob Evans,restaurant,"550 Robinson Rd, Wooster, OH 44691, USA",40.7884594,-81.9331562,Wooster,OH,44691,(330) 264-5799,https://www.bobevans.com/locations/wooster?utm_source=google&utm_medium=local&utm_campaign=119-Wooster-OH,https://maps.google.com/?cid=11444330798868924229,,,
Dutch Kitchen,restaurant,"14278 Lincoln Way E, Dalton, OH 44618, USA",40.8014708,-81.7277232,Dalton,OH,44618,(330) 683-0530,https://www.dutchkitchen.net/,https://maps.google.com/?cid=970974767560064711,,,
Buffalo Wild Wings,restaurant,"4122 Burbank Rd, Wooster, OH 44691, USA",40.8489574,-81.94883589999999,Wooster,OH,44691,(330) 264-2299,https://www.buffalowildwings.com/locations/us/oh/wooster/4122-burbank-road/sports-bar-1355?utm_source=google%20my%20business&utm_medium=organic&utm_campaign=website%20link,https://maps.google.com/?cid=15061407455566405715,,,
Romeo's Pizza,restaurant,"840 E Milltown Rd, Wooster, OH 44691, USA",40.8414726,-81.92872609999999,Wooster,OH,44691,(330) 345-1530,https://locations.romeospizza.com/wooster/,https://maps.google.com/?cid=10300702687626736477,,,
Cardtronics ATM,atm,"2349 Akron Rd, Wooster, OH 44691, USA",40.828026,-81.907831,Wooster,OH,44691,(330) 262-0924,,https://maps.google.com/?cid=9452246348854170757,,,
ATM,atm,"825 Dover Rd, Wooster, OH 44691, USA",40.77636379999999,-81.9294754,Wooster,OH,44691,,,https://maps.google.com/?cid=12348044262461970898,,,
Chase ATM,atm,"141 N Walnut St, Wooster, OH 44691, USA",40.79895920000001,-81.9413786,Wooster,OH,44691,(800) 935-9935,https://locator.chase.com/?jp_cmp=rb%2FLocalListings%2Faff%2Fatm%2Fna&y_source=1_MTIyOTQyNzgtNzE1LWxvY2F0aW9uLndlYnNpdGU%3D,https://maps.google.com/?cid=4387658181896390559,,,
PNC ATM,atm,"112 W Liberty St, Wooster, OH 44691, USA",40.7979193,-81.9404133,Wooster,OH,44691,(888) 762-2265,https://apps.pnc.com/locator/location-details/ohio/wooster/44691/PJ7329/public-squarewooster-tww?lnksrc=atm-listing-google,https://maps.google.com/?cid=9470691293870132418,,,
ATM,atm,"4192 Burbank Rd, Wooster, OH 44691, USA",40.850541,-81.9475281,Wooster,OH,44691,,,https://maps.google.com/?cid=10796793125404264362,,,
ATM,atm,"Portage Square Shopping Center, 1931 Portage Rd, Wooster, OH 44691, USA",40.8281303,-81.9119795,Wooster,OH,44691,,,https://maps.google.com/?cid=14829613315094574759,,,
ATM,atm,"1058 W Old Lincoln Way, Wooster, OH 44691, USA",40.7989646,-81.9546654,Wooster,OH,44691,,,https://maps.google.com/?cid=15066966933415443992,,,
PNC ATM,atm,"3540 Burbank Rd, Wooster, OH 44691, USA",40.8427478,-81.94458929999999,Wooster,OH,44691,(888) 762-2265,https://apps.pnc.com/locator/location-details/ohio/wooster/44691/PJ0684/buehlers-milltown-isl-c?lnksrc=atm-listing-google,https://maps.google.com/?cid=13122650794694576925,,,
ATM (Circle K),atm,"134 S Main St, Creston, OH 44217, USA",40.98262980000001,-81.8965621,Creston,OH,44217,,,https://maps.google.com/?cid=9780475652510403892,,,
ATM,atm,"2258 Eagle Pass, Wooster, OH 44691, USA",40.8267663,-81.90473080000001,Wooster,OH,44691,,,https://maps.google.com/?cid=16492857102312127646,,,
ATM,atm,"2024 Millersburg Rd, Wooster, OH 44691, USA",40.7749476,-81.9290695,Wooster,OH,44691,,,https://maps.google.com/?cid=3052331172326078519,,,
ATM,atm,"329 S Market St, Wooster, OH 44691, USA",40.7950013,-81.9393856,Wooster,OH,44691,(330) 289-8751,,https://maps.google.com/?cid=17244647894992504075,,,
Cardtronics ATM,atm,"134 S Main St, Creston, OH 44217, USA",40.98262980000001,-81.8965621,Creston,OH,44217,(800) 786-9666,http://locator.cardtronics.com/index.aspx,https://maps.google.com/?cid=17106340342372535299,,,
Woodforest National Bank ATM,atm,"3883 Burbank Rd, Wooster, OH 44691, USA",40.8476177,-81.94159359999999,Wooster,OH,44691,,https://www.woodforest.com/,https://maps.google.com/?cid=3877738659154973371,,,
ATM,atm,"404 W Main St, Wilmot, OH 44689, USA",40.6564278,-81.6342253,Wilmot,OH,44689,(330) 359-6247,,https://maps.google.com/?cid=8881095818892026612,,,
Huntington Bank,atm,"142 N Bever St, Wooster, OH 44691, USA",40.79956899999999,-81.9373346,Wooster,OH,44691,(330) 262-3676,https://www.huntington.com/Community/branch-info?locationId=23928&cmpid=seo:local_listings:branch_info:na,https://maps.google.com/?cid=16396148016406127615,,,
PNC ATM,atm,"1776 Beall Ave, Wooster, OH 44691, USA",40.8210322,-81.9347269,Wooster,OH,44691,(888) 762-2265,https://apps.pnc.com/locator/location-details/ohio/wooster/44691/PJ7297/beall-twd?lnksrc=atm-listing-google,https://maps.google.com/?cid=1210937886164482301,,,
ATM,atm,"121 N Main St, Creston, OH 44217, USA",40.98457049999999,-81.8943654,Creston,OH,44217,,,https://maps.google.com/?cid=6498259794303635420,,,
Huntington Bank ATM (Walk Up),atm,"135 E Liberty St, Wooster, OH 44691, USA",40.7980641,-81.93896029999999,Wooster,OH,44691,(800) 480-2265,https://www.huntington.com/branchlocator,https://maps.google.com/?cid=6796160693145849934,,,
ATM (Stop'n Go),atm,"228 S Main St, Creston, OH 44217, USA",40.97480049999999,-81.899697,Creston,OH,44217,,,https://maps.google.com/?cid=8968533069898188214,,,
Cardtronics,atm,"1955 Cleveland Rd, Wooster, OH 44691, USA",40.8236145,-81.9333817,Wooster,OH,44691,,http://www.cardtronics.com/about/,https://maps.google.com/?cid=17418038530245966261,,,
Huntington Bank ATM (Drive-Up),atm,"3754 Burbank Rd, Wooster, OH 44691, USA",40.8449592,-81.9441686,Wooster,OH,44691,(800) 480-2265,https://www.huntington.com/branchlocator,https://maps.google.com/?cid=10460522582879225496,,,
Huntington Bank ATM (Drive-Up),atm,"142 N Bever St, Wooster, OH 44691, USA",40.7995805,-81.9373402,Wooster,OH,44691,(800) 480-2265,https://www.huntington.com/branchlocator,https://maps.google.com/?cid=15500616335332177937,,,
The Commercial & Savings Bank,atm,"3562 Commerce Pkwy, Wooster, OH 44691, USA",40.8428924,-81.9474829,Wooster,OH,44691,(330) 345-2031,https://www.csb1.com/,https://maps.google.com/?cid=3110400867641520815,,,
ATM,atm,"15974 E Main St, Mt Eaton, OH 44659, USA",40.6941193,-81.7004822,Mount Eaton,OH,44659,,,https://maps.google.com/?cid=1726517121597313385,,,
Wayne County Community Federal Credit Union,atm,"100 W Market St, Orrville, OH 44667, USA",40.8405382,-81.7644384,Orrville,OH,44667,(330) 682-2117,http://www.wccfcu.com/,https://maps.google.com/?cid=1232483538548499615,,,
PNC ATM,atm,"336 N Market St, Wooster, OH 44691, USA",40.8013476,-81.9414448,Wooster,OH,44691,(888) 762-2265,https://apps.pnc.com/locator/location-details/ohio/wooster/44691/LK713306/buehler-food-mkt?lnksrc=atm-listing-google,https://maps.google.com/?cid=8534081950513647524,,,
Main Street Bank,atm,"151 N Market St, Wooster, OH 44691, USA",40.799311,-81.93983,Wooster,OH,44691,(330) 264-5767,http://mymainstreetbank.bank/,https://maps.google.com/?cid=5198162833317944114,,,
PNC ATM,atm,"101 W Market St, Orrville, OH 44667, USA",40.8408349,-81.7646635,Orrville,OH,44667,(888) 762-2265,https://apps.pnc.com/locator/location-details/ohio/orrville/44667/PX1859/orrville-west-island?lnksrc=atm-listing-google,https://maps.google.com/?cid=5819516478652979479,,,
PNC Bank,atm,"112 W Liberty St, Wooster, OH 44691, USA",40.79799,-81.94028999999999,Wooster,OH,44691,(330) 264-1222,https://apps.pnc.com/locator/location-details/ohio/wooster/44691/00434070/public-squarewooster?lnksrc=branch-listing-google,https://maps.google.com/?cid=12287270240131561245,,,
ATM,atm,"333 W South St, Shreve, OH 44676, USA",40.6800985,-82.0257707,Shreve,OH,44676,,,https://maps.google.com/?cid=3819482284156156669,,,
ATM,atm,"637 E Main St, Smithville, OH 44677, USA",40.8676557,-81.8519511,Smithville,OH,44677,(330) 669-2231,http://www.pizzabysam.com/,https://maps.google.com/?cid=5498422325416176593,,,
ATM,atm,"153 E Main St, Smithville, OH 44677, USA",40.86362279999999,-81.85869129999999,Smithville,OH,44677,,,https://maps.google.com/?cid=8953712635158303369,,,
ATM,atm,"S Mill St, Dalton, OH 44618, USA",40.79544509999999,-81.69500529999999,Dalton,OH,44618,,,https://maps.google.com/?cid=13712303827958873077,,,
Citizens ATM,atm,"214 High St, Wadsworth, OH 44281, USA",41.0285531,-81.73029059999999,Wadsworth,OH,44281,(330) 334-2591,https://www.citizensbank.com/search/answers.aspx?query=ATM&referrerPageUrl=https%3A%2F%2Flocations.citizensbank.com%2F&tabOrder=.%2Findex.html%2Clocations%2CFAQ%2Chelp_articles%2Cinvestors_bank_resources%2Chsbc_resources%2Cproducts&facetFilters=%7B%7D&filters=%7B%7D&verticalUrl=locations.html,https://maps.google.com/?cid=9840566239704616979,,,
Apple Creek Banking Co,atm,"3 W Main St, Apple Creek, OH 44606, USA",40.749212,-81.83630199999999,Apple Creek,OH,44606,(330) 698-2631,https://www.applecreekbank.com/,https://maps.google.com/?cid=17612211924849180389,,,
PNC ATM,atm,"1052 High St, Wadsworth, OH 44281, USA",41.05122149999999,-81.72928189999999,Wadsworth,OH,44281,(888) 762-2265,https://apps.pnc.com/locator/location-details/ohio/wadsworth/44281/PX2050/wadsworth-drive-up-island?lnksrc=atm-listing-google,https://maps.google.com/?cid=10583102825176582306,,,
Huntington Bank,atm,"135 E Liberty St, Wooster, OH 44691, USA",40.7980641,-81.93896029999999,Wooster,OH,44691,(330) 263-3230,https://www.huntington.com/Community/branch-info?locationId=23440&cmpid=seo:local_listings:branch_info:na,https://maps.google.com/?cid=2234381425851718499,,,
ATM,atm,"11977 Lincoln Way E, Orrville, OH 44667, USA",40.7955555,-81.7658089,Orrville,OH,44667,,,https://maps.google.com/?cid=8345585943071028157,,,
Wayne County Community Federal Credit Union,atm,"311 Kaufmann Dr, Smithville, OH 44677, USA",40.86348630000001,-81.8653942,Smithville,OH,44677,(330) 669-2117,https://www.wccfcu.com/,https://maps.google.com/?cid=16557579432112572825,,,
ATM,atm,"237 E Market St, Orrville, OH 44667, USA",40.8409423,-81.7624273,Orrville,OH,44667,,,https://maps.google.com/?cid=2100061289037489309,,,
Huntington Bank ATM (Drive-Up),atm,"215 Hostetler Rd, Orrville, OH 44667, USA",40.854191,-81.765446,Orrville,OH,44667,(800) 480-2265,https://www.huntington.com/branchlocator,https://maps.google.com/?cid=1961446860479827004,,,
PNC Bank,atm,"1776 Beall Ave, Wooster, OH 44691, USA",40.8211057,-81.9348186,Wooster,OH,44691,(330) 264-9038,https://apps.pnc.com/locator/location-details/ohio/wooster/44691/00418070/beall?lnksrc=branch-listing-google,https://maps.google.com/?cid=18298526549962423388,,,
ATM,atm,"1353 Reimer Rd, Wadsworth, OH 44281, USA",41.0557432,-81.7362921,Wadsworth,OH,44281,,,https://maps.google.com/?cid=17945389147706360390,,,
ATM,atm,"12527 Sheets Rd, Rittman, OH 44270, USA",40.9703795,-81.7585981,Rittman,OH,44270,(330) 925-4961,,https://maps.google.com/?cid=12479864027738305993,,,
ATM (Duke/Duchess Shoppe),atm,"265 W Main St, Smithville, OH 44677, USA",40.8621815,-81.8621555,Smithville,OH,44677,(330) 669-3390,,https://maps.google.com/?cid=16410379849027610262,,,
Huntington Bank,atm,"3754 Burbank Rd, Wooster, OH 44691, USA",40.8449592,-81.9441686,Wooster,OH,44691,(330) 263-2830,https://www.huntington.com/Community/branch-info?locationId=23416&cmpid=seo:local_listings:branch_info:na,https://maps.google.com/?cid=12495775732740284089,,,
The Commercial & Savings Bank,atm,"350 E Liberty St, Wooster, OH 44691, USA",40.7990724,-81.9354611,Wooster,OH,44691,(330) 263-1955,https://www.csb1.com/,https://maps.google.com/?cid=6922613504326282937,,,
Huntington Bank,atm,"215 Hostetler Rd, Orrville, OH 44667, USA",40.854191,-81.765446,Orrville,OH,44667,(330) 683-8008,https://www.huntington.com/Community/branch-info?locationId=23432&cmpid=seo:local_listings:branch_info:na,https://maps.google.com/?cid=15940517642971542390,,,
PNC Bank,atm,"101 W Market St, Orrville, OH 44667, USA",40.84076359999999,-81.7646496,Orrville,OH,44667,(330) 683-3055,https://apps.pnc.com/locator/location-details/ohio/orrville/44667/00448070/orrville-west?lnksrc=branch-listing-google,https://maps.google.com/?cid=622556638118948688,,,
Main Street Bank,atm,"1908 Cleveland Rd, Wooster, OH 44691, USA",40.823318,-81.93449799999999,Wooster,OH,44691,(330) 262-5988,http://mymainstreetbank.bank/,https://maps.google.com/?cid=1164237274956299294,,,
CoinFlip Bitcoin ATM - Bowman Beverage (Wooster),atm,"927 E Bowman St, Wooster, OH 44691, USA",40.80449589999999,-81.92713189999999,Wooster,OH,44691,(773) 800-0106,https://locations.coinflip.tech/us/oh/wooster/927-e-bowman-st?utm_source=gmb&utm_medium=yext,https://maps.google.com/?cid=3055054064711690846,,,
U.S. Bank ATM - Doylestown,atm,"53 Portage St, Doylestown, OH 44230, USA",40.9693986,-81.696597,Doylestown,OH,44230,(800) 872-2657,http://usbank.com/,https://maps.google.com/?cid=15990208247014289929,,,
Farmers National Bank,atm,"4192 Burbank Rd, Wooster, OH 44691, USA",40.85053899999999,-81.947541,Wooster,OH,44691,(330) 263-5303,https://www.farmersbankgroup.com/,https://maps.google.com/?cid=8391101457600558829,,,
ATM (Duke/Duchess Shoppe),atm,"10169 Avon Lake Rd, Burbank, OH 44214, USA",40.9954548,-81.9961379,Burbank,OH,44214,(330) 624-2701,,https://maps.google.com/?cid=4256650110016853627,,,
Main Street Bank,atm,"543 Riffel Rd # 1, Wooster, OH 44691, USA",40.851118,-81.9483395,Wooster,OH,44691,(330) 264-0722,http://mymainstreetbank.bank/,https://maps.google.com/?cid=12366045306721075562,,,
Cardtronics ATM,atm,"1051 High St, Wadsworth, OH 44281, USA",41.05156529999999,-81.7281953,Wadsworth,OH,44281,,,https://maps.google.com/?cid=150526766980194123,,,
Medina County Federal Credit Union,atm,"1353 Reimer Rd, Wadsworth, OH 44281, USA",41.0557535,-81.7361816,Wadsworth,OH,44281,(330) 334-1023,https://www.medfed.com/,https://maps.google.com/?cid=218666432880088178,,,
ATM,atm,"18575 Edwards Rd, Doylestown, OH 44230, USA",40.9598992,-81.65832,Doylestown,OH,44230,,,https://maps.google.com/?cid=11507636496129120775,,,
ATM,atm,"500 College St, Wadsworth, OH 44281, USA",41.02579860000001,-81.7444179,Wadsworth,OH,44281,,,https://maps.google.com/?cid=3052012758994708013,,,
Marathon Gas,gas_station,"2349 Akron Rd, Wooster, OH 44691, USA",40.8280368,-81.9082038,Wooster,OH,44691,(330) 262-0924,,https://maps.google.com/?cid=15813341479581627333,,,
Marathon Gas,gas_station,"1046 Apple Creek Rd, Wooster, OH 44691, USA",40.8122972,-81.84489099999999,Wooster,OH,44691,(330) 263-1929,,https://maps.google.com/?cid=3413566801142943635,,,
Marathon Gas,gas_station,"1337 Blachleyville Rd, Wooster, OH 44691, USA",40.7806326,-81.9672021,Wooster,OH,44691,(330) 264-9681,https://www.marathonbrand.com/Stations/Station_Locator/,https://maps.google.com/?cid=1641926304367904318,,,
Marathon Gas,gas_station,"3540 Burbank Rd, Wooster, OH 44691, USA",40.8429105,-81.9431286,Wooster,OH,44691,(330) 833-8555,,https://maps.google.com/?cid=13053901667310648197,,,
Marathon Gas,gas_station,"2240 S Columbus Rd, Wooster, OH 44691, USA",40.7708271,-81.9730754,Wooster,OH,44691,(330) 264-9083,,https://maps.google.com/?cid=10625958470217236277,,,
Speedway,gas_station,"1970 Cleveland Rd, Wooster, OH 44691, USA",40.8242589,-81.9340821,Wooster,OH,44691,(330) 262-6741,https://www.speedway.com/locations/OH/Wooster/1970-Cleveland-Road?utm_source=G&utm_medium=local&utm_campaign=google-local,https://maps.google.com/?cid=4591968944958792117,,,
Speedway,gas_station,"110 S Bever St, Wooster, OH 44691, USA",40.7984198,-81.9364957,Wooster,OH,44691,(330) 262-0176,https://www.speedway.com/locations/OH/Wooster/110-South-Bever-Street?utm_source=G&utm_medium=local&utm_campaign=google-local,https://maps.google.com/?cid=7131739129760173569,,,
BP,gas_station,"3013 Lincoln Way E, Wooster, OH 44691, USA",40.7954489,-81.9049807,Wooster,OH,44691,(330) 262-2567,https://www.bp.com/en_us/bp-us.html,https://maps.google.com/?cid=10439001685859265206,,,
Marathon,gas_station,"3013 Lincoln Way E, Wooster, OH 44691, USA",40.795458,-81.904979,Wooster,OH,44691,(330) 262-2567,,https://maps.google.com/?cid=7745978758440021013,,,
Marathon Gas,gas_station,"1530 Beall Ave, Wooster, OH 44691, USA",40.8160848,-81.9345285,Wooster,OH,44691,(330) 263-2800,https://www.marathonbrand.com/Stations/Station_Locator/,https://maps.google.com/?cid=8442254900668295279,,,
Marathon Gas,gas_station,"132 W Milltown Rd, Wooster, OH 44691, USA",40.8428628,-81.9411595,Wooster,OH,44691,(330) 345-0050,,https://maps.google.com/?cid=14062993210592781046,,,
Mobil,gas_station,"1058 W Old Lincoln Way, Wooster, OH 44691, USA",40.79903849999999,-81.9546258,Wooster,OH,44691,(330) 262-2893,https://www.exxon.com/en/find-station/mobil-wooster-oh-redroverwoostermobil-200323769?utm_medium=referral&utm_source=yxt-google&utm_campaign=us_fue_ret_xom_yxt,https://maps.google.com/?cid=3189248695395029612,,,
BellStores,gas_station,"2424 Akron Rd, Wooster, OH 44691, USA",40.8288123,-81.909044,Wooster,OH,44691,(330) 262-4441,https://bellstores.com/,https://maps.google.com/?cid=6348793513220695304,,,
bp,gas_station,"825 Dover Rd, Wooster, OH 44691, USA",40.7761915,-81.9290463,Wooster,OH,44691,(330) 262-5900,https://map.bp.com/en-US/US/gas-station/wooster/bp/03655201098254469100100000000000,https://maps.google.com/?cid=6620026037702850932,,,
Buehler's Gas Station,gas_station,"3540 Burbank Rd, Wooster, OH 44691, USA",40.8429003,-81.9432119,Wooster,OH,44691,,,https://maps.google.com/?cid=7204440319178072697,,,
Marathon Gas,gas_station,"404 S Market St, Wooster, OH 44691, USA",40.79451559999999,-81.9386845,Wooster,OH,44691,(330) 262-7435,https://www.marathonbrand.com/Stations/Station_Locator/,https://maps.google.com/?cid=12177315305581355720,,,
Minit Mart,gas_station,"825 Dover Rd, Wooster, OH 44691, USA",40.7763335,-81.9295681,Wooster,OH,44691,(330) 262-5900,http://www.minitmart.com/,https://maps.google.com/?cid=18279032644950671856,,,
Red Rover Gas Station,gas_station,"1055 W Old Lincoln Way, Wooster, OH 44691, USA",40.79949129999999,-81.954611,Wooster,OH,44691,(330) 262-6502,https://www.santmyer.com/red-rover-stations/commercial-fuel-management/,https://maps.google.com/?cid=8335350186891235825,,,
BellStores,gas_station,"2240 Old Columbus Rd, Wooster, OH 44691, USA",40.7706666,-81.9732239,Wooster,OH,44691,(330) 264-9083,http://www.bellstores.com/,https://maps.google.com/?cid=15538921403752555644,,,
BellStores,gas_station,"5 W Buckeye St, West Salem, OH 44287, USA",40.9725369,-82.1099516,West Salem,OH,44287,(419) 853-4672,http://bellstores.com/,https://maps.google.com/?cid=10715652510616652745,,,
BellStores,gas_station,"901 N Main St, Orrville, OH 44667, USA",40.8479801,-81.76418869999999,Orrville,OH,44667,(330) 682-1022,https://bellstores.com/,https://maps.google.com/?cid=7727371617680485115,,,
Marathon,gas_station,"60 E Main St, Apple Creek, OH 44606, USA",40.7486395,-81.83576240000001,Apple Creek,OH,44606,(330) 778-0002,,https://maps.google.com/?cid=11156394880541143256,,,
BellStores,gas_station,"132 W Milltown Rd, Wooster, OH 44691, USA",40.8428115,-81.9408708,Wooster,OH,44691,(330) 345-0050,http://www.bellstores.com/,https://maps.google.com/?cid=7442286898746298014,,,
Meijer Express Gas Station,gas_station,"4905 Burbank Rd, Wooster, OH 44691, USA",40.85998499999999,-81.951967,Wooster,OH,44691,(330) 913-3855,https://www.meijer.com/shopping/store-locator/330.html?cmpid=LM:Web::::05112021::GoogleGasStation,https://maps.google.com/?cid=1170532069989269578,,,
Sunoco,gas_station,"304 S Main St, Orrville, OH 44667, USA",40.8382188,-81.7641539,Orrville,OH,44667,(330) 682-0210,https://www.sunoco.com/locations/store/304-s-main-street-orrville-oh-8002432401,https://maps.google.com/?cid=10585452864526981925,,,
Marathon Gas,gas_station,"220 S Columbus Rd, Wooster, OH 44691, USA",40.7956292,-81.9468752,Wooster,OH,44691,(330) 262-2406,,https://maps.google.com/?cid=2621295663550246227,,,
Bellstores,gas_station,"220 S Columbus Rd, Wooster, OH 44691, USA",40.7956555,-81.94705069999999,Wooster,OH,44691,(330) 262-2406,https://bellstores.com/,https://maps.google.com/?cid=883199711600367458,,,
Marathon Gas,gas_station,"175 E Ohio Ave, Rittman, OH 44270, USA",40.9734018,-81.7753074,Rittman,OH,44270,(330) 485-4220,http://mymarathonstation.com/StoreHome/82263,https://maps.google.com/?cid=9312778391565796150,,,
bp,gas_station,"18575 Edwards Rd, Doylestown, OH 44230, USA",40.9599178,-81.6585518,Doylestown,OH,44230,(330) 658-3010,https://map.bp.com/en-US/US/gas-station/doylestown/bp/57854181785754423000100000000000,https://maps.google.com/?cid=13409542558739064018,,,
Circle K,gas_station,"2349 Akron Rd, Wooster, OH 44691, USA",40.827869,-81.908486,Wooster,OH,44691,(330) 262-0924,https://www.circlek.com/store-locator/US/wooster/2349-akron-rd/4705440?utm_source=google&utm_medium=local&utm_campaign=google-local,https://maps.google.com/?cid=17126100055152344284,,,
BellStores,gas_station,"1337 Blachleyville Rd, Wooster, OH 44691, USA",40.7807116,-81.9670125,Wooster,OH,44691,(330) 264-9681,http://www.bellstores.com/,https://maps.google.com/?cid=6075435170849846673,,,
BellStores,gas_station,"404 S Market St, Wooster, OH 44691, USA",40.7945651,-81.938482,Wooster,OH,44691,(330) 262-7435,https://bellstores.com/,https://maps.google.com/?cid=13004239805594853098,,,
bp,gas_station,"265 W Main St, Smithville, OH 44677, USA",40.862253,-81.86142699999999,Smithville,OH,44677,(330) 669-3390,https://map.bp.com/en-US/US/gas-station/smithville/bp/71921736632654467700100000000000,https://maps.google.com/?cid=1241553938542371035,,,
BellStores,gas_station,"1530 Beall Ave, Wooster, OH 44691, USA",40.8160706,-81.93452239999999,Wooster,OH,44691,(330) 263-2800,http://www.bellstores.com/,https://maps.google.com/?cid=2516820923483870280,,,
Circle K,gas_station,"134 S Main St, Creston, OH 44217, USA",40.98247500000001,-81.89660599999999,Creston,OH,44217,(330) 435-4584,https://www.circlek.com/store-locator/US/creston/134-s-main-st/4705441?utm_source=google&utm_medium=local&utm_campaign=google-local,https://maps.google.com/?cid=8648447301313872233,,,
Marathon Gas,gas_station,"1422 W High St, Orrville, OH 44667, USA",40.8440386,-81.78096959999999,Orrville,OH,44667,(330) 683-3035,https://www.marathonbrand.com/Stations/Station_Locator/,https://maps.google.com/?cid=12119896393176327800,,,
Marathon Gas,gas_station,"425 W High St, Orrville, OH 44667, USA",40.8438473,-81.76922549999999,Orrville,OH,44667,(330) 684-1606,,https://maps.google.com/?cid=3744853790704207347,,,
BellStores,gas_station,"1046 Apple Creek Rd, Wooster, OH 44691, USA",40.8122972,-81.84489099999999,Wooster,OH,44691,(330) 263-1929,http://bellstores.com/,https://maps.google.com/?cid=11738412384318606153,,,
Circle K,gas_station,"10302 Akron Rd, Rittman, OH 44270, USA",40.925224,-81.764938,Rittman,OH,44270,(330) 855-1100,https://www.circlek.com/store-locator/US/rittman/10302-akron-rd/4705587?utm_source=google&utm_medium=local&utm_campaign=google-local,https://maps.google.com/?cid=1397624109241637912,,,
Ports Petroleum,gas_station,"1337 Blachleyville Rd, Wooster, OH 44691, USA",40.7801826,-81.9669155,Wooster,OH,44691,(800) 562-0373,https://portspetroleum.com/,https://maps.google.com/?cid=1240428639825851297,,,
Marathon Gas,gas_station,"216 S Mill St, Dalton, OH 44618, USA",40.7954551,-81.6946524,Dalton,OH,44618,(866) 462-7284,https://www.marathonfuel.com/home,https://maps.google.com/?cid=17384048266145446139,,,
"Santmyer Companies, Inc.",gas_station,"3000 Old Airport Rd, Wooster, OH 44691, USA",40.8342402,-81.9085176,Wooster,OH,44691,(330) 262-6502,https://www.santmyer.com/,https://maps.google.com/?cid=12758085376321795349,,,
"Santmyer Energy, Inc.",gas_station,"1055 W Old Lincoln Way, Wooster, OH 44691, USA",40.7997675,-81.9550153,Wooster,OH,44691,(330) 262-6501,https://www.santmyer.com/,https://maps.google.com/?cid=8113134061321091807,,,
Red Rover Commercial Fueling,gas_station,"2990 Old Airport Rd, Wooster, OH 44691, USA",40.8330308,-81.9070411,Wooster,OH,44691,(330) 262-2334,http://www.santmyer.com/,https://maps.google.com/?cid=3917396201332773891,,,
bp,gas_station,"228 S Main St, Creston, OH 44217, USA",40.9747928,-81.8996954,Creston,OH,44217,(330) 435-4133,https://map.bp.com/en-US/US/gas-station/creston/bp/64496101522284421700100000000000,https://maps.google.com/?cid=8113947931511980309,,,
Sandy Supply Co,gas_station,"636 Kemrow St, Wooster, OH 44691, USA",40.79508060000001,-81.95054069999999,Wooster,OH,44691,(330) 262-1730,,https://maps.google.com/?cid=17161480001869830647,,,
Circle K,gas_station,"3899 Eastern Rd, Norton, OH 44203, USA",40.9890771,-81.66448729999999,Norton,OH,44203,(330) 658-0008,https://www.circlek.com/store-locator/US/norton/3899-eastern-rd/4705628?utm_source=google&utm_medium=local&utm_campaign=google-local,https://maps.google.com/?cid=1381015889584646073,,,
Marathon Gas,gas_station,"10302 Akron Rd, Rittman, OH 44270, USA",40.92497769999999,-81.76489339999999,Rittman,OH,44270,(330) 855-1100,,https://maps.google.com/?cid=80475498365359435,,,
Cramer Oil Inc,gas_station,"530 Palmer St, Wooster, OH 44691, USA",40.803476,-81.924984,Wooster,OH,44691,(330) 262-9846,http://crameroil.com/,https://maps.google.com/?cid=494756497045204442,,,
Morris Oil Co LLC,gas_station,"1003 Spruce St, Wooster, OH 44691, USA",40.7878238,-81.9420257,Wooster,OH,44691,(330) 262-6916,,https://maps.google.com/?cid=7276685332688501754,,,
Marathon Gas,gas_station,"188 N, 188 Portage St, Doylestown, OH 44230, USA",40.9710617,-81.69546729999999,Doylestown,OH,44230,(330) 658-1482,https://www.marathonbrand.com/Stations/Station_Locator/,https://maps.google.com/?cid=8670952027929254867,,,
BellStores,gas_station,"208 S Mill St, Dalton, OH 44618, USA",40.7956809,-81.69317219999999,Dalton,OH,44618,(330) 828-8630,https://bellstores.com/,https://maps.google.com/?cid=10434538801686516092,,,
Love's Travel Stop,gas_station,"10145 Avon Lake Rd, Burbank, OH 44214, USA",40.99638889999999,-81.9952778,Burbank,OH,44214,(330) 624-1000,https://www.loves.com/locations/332,https://maps.google.com/?cid=5187275779403654542,,,
Kwik Fill,gas_station,"195 N Main St, Rittman, OH 44270, USA",40.9780944,-81.78187539999999,Rittman,OH,44270,(330) 925-5400,https://www.kwikfill.com/,https://maps.google.com/?cid=17130770493827158135,,,
Enbridge Gas,gas_station,"1049 Heyl Rd, Wooster, OH 44691, USA",40.7854178,-81.9611996,Wooster,OH,44691,(800) 362-7557,https://www.enbridgegas.com/ohio,https://maps.google.com/?cid=7363067683134703663,,,
bp,gas_station,"209 Beall Ave, Wooster, OH 44691, USA",40.8005383,-81.9341756,Wooster,OH,44691,(330) 264-3322,https://map.bp.com/en-US/US/gas-station/wooster/bp/129235,https://maps.google.com/?cid=11991527333287775541,,,
Red Rover,gas_station,"2990 Old Airport Rd, Wooster, OH 44691, USA",40.8330595,-81.9069717,Wooster,OH,44691,(844) 875-3811,http://www.santmyeroil.com/,https://maps.google.com/?cid=2726506261243114608,,,
BellStores,gas_station,"15927 E Main St, Mt Eaton, OH 44659, USA",40.6939275,-81.70171320000001,Mount Eaton,OH,44659,(330) 359-5888,http://www.bellstores.com/,https://maps.google.com/?cid=15136247801176336957,,,
Circle K,gas_station,"1710 Wooster Rd W, Barberton, OH 44203, USA",41.00112290000001,-81.6483113,Barberton,OH,44203,(330) 825-7654,https://www.circlek.com/store-locator/us/barberton/1710-wooster-rd/m5609,https://maps.google.com/?cid=15843357465231399448,,,
bp,gas_station,"10134 Avon Lake Rd, Burbank, OH 44214, USA",40.996193,-81.99682899999999,Burbank,OH,44214,(330) 624-0036,https://map.bp.com/en-US/US/gas-station/burbank/bp/32720847531344421400100000000000,https://maps.google.com/?cid=8385469584814960550,,,
Ramseyer Farms,farm,"4000 Ramseyer Ln, Wooster, OH 44691, USA",40.84404409999999,-81.89049039999999,Wooster,OH,44691,(330) 264-0264,http://www.ramseyerfarms.com/,https://maps.google.com/?cid=7238219407041144296,,,
Quailcrest Farm,farm,"2810 Armstrong Rd, Wooster, OH 44691, USA",40.89773789999999,-81.991655,Wooster,OH,44691,(330) 345-6722,http://www.quailcrest.com/,https://maps.google.com/?cid=4830233977337929379,,,
Maurer Farms,farm,"2901 Batdorf Rd, Wooster, OH 44691, USA",40.7624386,-81.96346679999999,Wooster,OH,44691,(330) 264-2285,https://www.maurersberriesvegs.com/,https://maps.google.com/?cid=5033877195298786865,,,
Moreland fruit farm,farm,"1558 W Moreland Rd, Wooster, OH 44691, USA",40.7117193,-81.96860989999999,Wooster,OH,44691,(330) 264-8735,,https://maps.google.com/?cid=6758380366975901321,,,
DB Farms,farm,"2589 S Columbus Rd, Wooster, OH 44691, USA",40.76706529999999,-81.98004999999999,Wooster,OH,44691,(330) 347-6033,http://www.db-farms.com/,https://maps.google.com/?cid=804489360456025017,,,
"Carmony Stock Farms, Inc.",farm,"3987 Back Orrville Rd, Wooster, OH 44691, USA",40.82484999999999,-81.8894119,Wooster,OH,44691,(330) 317-2565,http://www.carmonystockfarms.com/,https://maps.google.com/?cid=3792563340744982592,,,
Schott Farms,farm,"3381 Lincoln Way E, Wooster, OH 44691, USA",40.79542780000001,-81.89962969999999,Wooster,OH,44691,(330) 201-4771,,https://maps.google.com/?cid=7937205964564148155,,,
Autumn Harvest Farm,farm,"5109 Rice Hill Rd, Wooster, OH 44691, USA",40.863019,-82.0288049,Wooster,OH,44691,(330) 264-8708,,https://maps.google.com/?cid=17568573839650684998,,,
Elm Run Farms,farm,"16808 Burkhart Rd, Orrville, OH 44667, USA",40.83963279999999,-81.6850813,Orrville,OH,44667,(330) 317-7283,http://www.elmrunfarms.com/,https://maps.google.com/?cid=14050485649334474734,,,
Green Vista Farm LLC,farm,"8200 Lattasburg Rd, Wooster, OH 44691, USA",40.862073,-82.07945699999999,Wooster,OH,44691,(330) 464-4358,http://www.greenvistafarm.com/,https://maps.google.com/?cid=14654963905278439442,,,
Central Farm & Garden Inc,farm,"380 N Smyser Rd, Wooster, OH 44691, USA",40.8062469,-82.0149284,Wooster,OH,44691,(330) 264-0282,https://www.centralfarm.com/,https://maps.google.com/?cid=14059516810345787348,,,
Harmony Farms,farm,"5294 Kidron Rd, Kidron, OH 44636, USA",40.735595,-81.74497210000001,Kidron,OH,44636,(330) 465-9915,,https://maps.google.com/?cid=17340981013014395810,,,
Wholesome Valley Farm,farm,"927 US-62, Wilmot, OH 44689, USA",40.6557756,-81.6519557,Wilmot,OH,44689,(330) 359-2129,http://wholesomevalleyfarms.com/,https://maps.google.com/?cid=15818584330779641161,,,
Nickajack Farms,farm,"2955 Manchester Ave NW, North Lawrence, OH 44666, USA",40.82707970000001,-81.60661340000001,North Lawrence,OH,44666,(330) 323-9714,http://www.nickajackfarms.com/,https://maps.google.com/?cid=13823095076244906933,,,
Constant Springs Farm Grass Fed Beef,farm,"1927 Tannerville Rd, Orrville, OH 44667, USA",40.823345,-81.72979079999999,Orrville,OH,44667,(330) 347-9990,,https://maps.google.com/?cid=968583821048833590,,,
Bauman Orchards Inc,farm,"161 Rittman Ave, Rittman, OH 44270, USA",40.9711111,-81.7986111,Rittman,OH,44270,(330) 925-6861,http://www.baumanorchards.com/,https://maps.google.com/?cid=11383231141955820698,,,
Stoney Creek Farm,farm,"14826 Stratton Rd, West Salem, OH 44287, USA",40.9807369,-82.0543055,West Salem,OH,44287,(330) 461-1178,http://www.facebook.com/StoneyCreekWestSalem,https://maps.google.com/?cid=2464012357494564836,,,
Winkler Farms LLC,farm,"13344 Kauffman Ave, Sterling, OH 44276, USA",40.9617117,-81.84455559999999,Sterling,OH,44276,(330) 939-4574,,https://maps.google.com/?cid=14563559168904628334,,,
R C Farms,farm,"5755 Kidron Rd, Apple Creek, OH 44606, USA",40.73000069999999,-81.745409,Apple Creek,OH,44606,(330) 857-2506,,https://maps.google.com/?cid=8114998084170237953,,,
Four Winds Farm,farm,"5709 Honeytown Rd, Smithville, OH 44677, USA",40.8691316,-81.87801910000002,Smithville,OH,44677,(330) 464-9035,,https://maps.google.com/?cid=9130173869183250678,,,
Cowmooch Dairy,farm,"4594 Back Orrville Rd, Wooster, OH 44691, USA",40.832199,-81.88085799999999,Wooster,OH,44691,,,https://maps.google.com/?cid=10456006466790784316,,,
West View Pawpaw Farm,farm,"2610 S Columbus Rd, Wooster, OH 44691, USA",40.7658494,-81.9799541,Wooster,OH,44691,(330) 262-8165,https://westviewpawpawfarm.com/,https://maps.google.com/?cid=10688377976745687951,,,
Rittman Orchards,farm,"13548 Mt Eaton Rd N, Doylestown, OH 44230, USA",40.96474999999999,-81.7391171,Doylestown,OH,44230,(330) 925-4152,https://rittmanorchards.com/,https://maps.google.com/?cid=6493919454022547709,,,
Stoller Farm,farm,"10451 Eby Rd, Sterling, OH 44276, USA",40.9273529,-81.854704,Sterling,OH,44276,(330) 939-3971,,https://maps.google.com/?cid=9247385760161733595,,,
Twinsberry Tree Farm,farm,"8916 Jefferson Rd, Shreve, OH 44676, USA",40.6909179,-82.0235112,Shreve,OH,44676,(330) 567-3902,https://twinsberrytreefarm.com/,https://maps.google.com/?cid=10195187818047940934,,,
"JoyfulLee Farms, LLC",farm,"13032 S Portage St, Doylestown, OH 44230, USA",40.9595735,-81.7217106,Doylestown,OH,44230,(330) 322-7721,http://www.joyfulleefarms.com/contact.aspx,https://maps.google.com/?cid=7317855187599196779,,,
"Harvest Hills Dairy Goat Farm, LLC",farm,"5834 Ely Rd, Wooster, OH 44691, USA",40.7808778,-81.864288,Wooster,OH,44691,(330) 234-1980,https://www.harvesthillsfarm.com/contact,https://maps.google.com/?cid=16187102033107427560,,,
Hobby Horse Farm,farm,"811 W Hutton Rd, Wooster, OH 44691, USA",40.8840964,-81.9596749,Wooster,OH,44691,(216) 780-0696,https://www.hobbyhorsefarm.com/,https://maps.google.com/?cid=16532877917481100990,,,
Witmer Farms,farm,"13619 Rehm Rd, Orrville, OH 44667, USA",40.853279,-81.739662,Orrville,OH,44667,(330) 683-1106,,https://maps.google.com/?cid=16121478209179978889,,,
BlueLoon Farm,farm,"13085 Elyria Rd, West Salem, OH 44287, USA",40.9580569,-82.1095832,West Salem,OH,44287,(330) 235-3953,http://www.blueloonfarm.com/,https://maps.google.com/?cid=15880500823513151979,,,
Pine Tree Barn,farm,"4374 Shreve Rd, Wooster, OH 44691, USA",40.7448981,-81.98394809999999,Wooster,OH,44691,(330) 264-1014,https://www.pinetreebarn.com/,https://maps.google.com/?cid=18406055565291297285,,,
Dotterer Farm Land Ltd,farm,"10052 Easton Rd, Rittman, OH 44270, USA",40.94745349999999,-81.7952,Rittman,OH,44270,(330) 925-8567,,https://maps.google.com/?cid=10062417751171950568,,,
Clear Creek Valley Farm,farm,"4293 Clear Creek Valley Rd, Wooster, OH 44691, USA",40.8525205,-81.9739786,Wooster,OH,44691,(330) 621-4596,http://clearcreekvalleyfarm.com/,https://maps.google.com/?cid=18213762479983729518,,,
Selah Farms,farm,"3287 Apple Creek Rd, Smithville, OH 44677, USA",40.84195799999999,-81.837414,Smithville,OH,44677,(330) 465-7011,http://www.selahfarmsohio.com/,https://maps.google.com/?cid=13621052278847885104,,,
Belted Oak Ranch,farm,"5390 E Easton Rd, Creston, OH 44217, USA",40.947994,-81.869019,Creston,OH,44217,(330) 465-8368,https://www.beltedoakranch.com/,https://maps.google.com/?cid=14272379608114454991,,,
Steffen Farm,farm,"12892 Western Rd, Apple Creek, OH 44606, USA",40.7237271,-81.75152659999999,Apple Creek,OH,44606,(330) 857-1005,,https://maps.google.com/?cid=8932849765278480282,,,
Max Acker Farm,farm,"3896 Maple Grove Rd, Wooster, OH 44691, USA",40.75301899999999,-82.047127,Wooster,OH,44691,(330) 264-8175,,https://maps.google.com/?cid=8141795467346524513,,,
L & R Dairy Farm,farm,"12599 Fulton Rd, Marshallville, OH 44645, USA",40.899016,-81.751999,Marshallville,OH,44645,(330) 855-3571,,https://maps.google.com/?cid=4742200847698659998,,,
Forgotten Thyme Farm,farm,"5969 Mud Lake Rd, Seville, OH 44273, USA",41.0043825,-81.9043998,Seville,OH,44273,(330) 769-0144,https://www.forgottenthymefarm.com/,https://maps.google.com/?cid=12226234082134272416,,,
Red Run Bison Farm,farm,"9143 Coal Bank Rd, Marshallville, OH 44645, USA",40.9110522,-81.7049879,Marshallville,OH,44645,(330) 472-2216,http://www.redrunbison.com/,https://maps.google.com/?cid=5397822770226052723,,,
Stoney Meadow Farm,farm,"5051 Oil City Rd, Wooster, OH 44691, USA",40.7379786,-81.90876349999999,Wooster,OH,44691,(330) 262-6545,http://www.stoneymeadowfarmohio.com/contact.html,https://maps.google.com/?cid=16943314685439939919,,,
Badger's Pumpkin Farm,farm,"9122 Elyria Rd, West Salem, OH 44287, USA",40.90979960000001,-82.10935599999999,West Salem,OH,44287,(330) 466-2432,,https://maps.google.com/?cid=10092848663643199601,,,
Tmar Farms LLC,farm,"12621 Shreve Rd, Big Prairie, OH 44611, USA",40.6719099,-82.077091,Big Prairie,OH,44611,(330) 641-9121,,https://maps.google.com/?cid=14875164949058972688,,,
Spring Run Farms,farm,"5729 Brown Rd, Shreve, OH 44676, USA",40.68590499999999,-82.038285,Shreve,OH,44676,(330) 567-3486,,https://maps.google.com/?cid=17718387993698803182,,,
Oak Hollow Farm - Miniature Horses,farm,"807 W Hutton Rd, Wooster, OH 44691, USA",40.8820002,-81.95957059999999,Wooster,OH,44691,(330) 466-0410,https://www.oakhollowfarmminiatures.com/contact-us,https://maps.google.com/?cid=11224435537766034041,,,
Hummingbird Hill Flower Farm,farm,"10055 S Funk Rd, Shreve, OH 44676, USA",40.6775559,-82.0828877,Shreve,OH,44676,(614) 425-5480,http://www.hummingbirdhillflowerfarm.com/,https://maps.google.com/?cid=2817905406166905516,,,
Troyer Farms,farm,"9505 Criswell Rd, Fredericksburg, OH 44627, USA",40.6839072,-81.8178396,Fredericksburg,OH,44627,,,https://maps.google.com/?cid=1985557734955087273,,,
Petals Flower Farm,farm,"1313 S Firestone Rd, Wooster, OH 44691, USA",40.78485749999999,-82.06229239999999,Wooster,OH,44691,(330) 621-4277,http://www.petalsflowerfarm.shop/,https://maps.google.com/?cid=7755553476927795643,,,
Walsh Farms Fall Family Fun,farm,"18723 Grill Rd, Doylestown, OH 44230, USA",40.9691115,-81.6550899,Doylestown,OH,44230,(330) 658-6125,https://www.facebook.com/pages/Walsh-Farms/283277178453359,https://maps.google.com/?cid=6376343355230891981,,,
Venture Heritage Farm,farm,"13777 Arnold Rd, Dalton, OH 44618, USA",40.77989589999999,-81.7359786,Dalton,OH,44618,,http://www.ventureheritagefarm.com/,https://maps.google.com/?cid=2450824144243244870,,,
Ro-La-Sue Dairy Farms,farm,"6601 McKee Rd, Wooster, OH 44691, USA",40.75787499999999,-82.0546339,Wooster,OH,44691,(330) 264-4980,,https://maps.google.com/?cid=120540961997831541,,,
Ramsier's Willow Spring Farm,farm,"2477 Eastern Rd, Rittman, OH 44270, USA",40.991058,-81.77979789999999,Rittman,OH,44270,(330) 925-1248,,https://maps.google.com/?cid=16170100753540401525,,,
Kaufman Family Farm,farm,"9345 River Styx Rd, Wadsworth, OH 44281, USA",41.01898800000001,-81.7897019,Wadsworth,OH,44281,(330) 472-4087,http://www.kaufmanfamilyfarm.com/,https://maps.google.com/?cid=12883082450305490921,,,
Willow Brook Dairy,farm,"6860 Snoddy Rd, Shreve, OH 44676, USA",40.7161653,-82.1233723,Shreve,OH,44676,,,https://maps.google.com/?cid=10365549233789465473,,,
The Shepherd's Market,farm,"13306 Co Rd 100, Big Prairie, OH 44611, USA",40.6650549,-82.09712329999999,Big Prairie,OH,44611,(330) 390-4783,http://shepherdsmarket.biz/,https://maps.google.com/?cid=17831861594000597296,,,
Blue Barn Winery (seasonal winery),farm,"4407 S Columbus Rd, Wooster, OH 44691, USA",40.745993,-82.0155516,Wooster,OH,44691,(330) 575-1028,http://www.bluebarnwinery.com/,https://maps.google.com/?cid=9826239636124593563,,,
Mill Stone Acres,farm,"3878 Bates Rd, Wooster, OH 44691, USA",40.846949,-82.07755399999999,Wooster,OH,44691,(330) 201-7796,,https://maps.google.com/?cid=2694027523389482109,,,
F.H.J. Farms/ Hershey Family Drive Through Christmas Display,farm,"10426 W Smithville Western Rd, Wooster, OH 44691, USA",40.85732160000001,-82.1117041,Wooster,OH,44691,,,https://maps.google.com/?cid=17446371283443694419,,,
Bislich Family Farm,farm,"8211 Greenwich Rd, Lodi, OH 44254, USA",41.0268387,-81.9860837,Lodi,OH,44254,(330) 948-3178,,https://maps.google.com/?cid=8460360578141626305,,,
Bristol Dairy,farm,"0200003000, Marshallville, OH 44645, USA",40.8857922,-81.7058898,Marshallville,OH,44645,,,https://maps.google.com/?cid=4598306598503842121,,,
pOpshelf,store,"4369 Burbank Rd, Wooster, OH 44691, USA",40.8526913,-81.9466916,Wooster,OH,44691,(234) 249-1410,https://www.popshelf.com/store/30425,https://maps.google.com/?cid=4357051920614129699,,,
Everything Surplus,store,"1981 Portage Rd, Wooster, OH 44691, USA",40.8274751,-81.91087309999999,Wooster,OH,44691,(330) 264-8776,,https://maps.google.com/?cid=6322415163128073432,,,
Wayne Towne Plaza,store,"3883 Burbank Rd, Wooster, OH 44691, USA",40.8480727,-81.9433699,Wooster,OH,44691,(330) 345-7493,,https://maps.google.com/?cid=928776306154139330,,,
The Clothing Warehouse,store,"Portage Square Shopping Center, 1981 Portage Rd, Wooster, OH 44691, USA",40.82769009999999,-81.9113064,Wooster,OH,44691,(330) 264-8776,http://www.clothingwarehousewooster.com/,https://maps.google.com/?cid=6121831400390783415,,,
Blue Spruce Boutique,store,"116 E Liberty St, Wooster, OH 44691, USA",40.7984187,-81.9395651,Wooster,OH,44691,(330) 601-0100,https://www.bluespruce.boutique/,https://maps.google.com/?cid=17259330395958695432,,,
Xcess Limited - Retail Overstock/Customer Return Inventory,store,"1605 Sylvan Rd, Wooster, OH 44691, USA",40.7909001,-81.9168212,Wooster,OH,44691,(330) 601-0800,http://www.xcesslimited.com/,https://maps.google.com/?cid=18184726525232019067,,,
Wooster Crossing,store,"3786 Burbank Rd, Wooster, OH 44691, USA",40.8443014,-81.94619,Wooster,OH,44691,,http://www.chaseprop.com/properties/wooster-crossing/,https://maps.google.com/?cid=11776455914816688173,,,
Operation Fandom,store,"120 S Market St, Wooster, OH 44691, USA",40.79788689999999,-81.9394566,Wooster,OH,44691,(330) 804-0287,https://m.facebook.com/OperationFandomWooster/,https://maps.google.com/?cid=17792435913609799480,,,
Meijer,store,"4845 Burbank Rd, Wooster, OH 44691, USA",40.85919570000001,-81.94900179999999,Wooster,OH,44691,(330) 222-6840,https://www.meijer.com/shopping/store-locator/330.html?cmpid=LM:Web::::05112021::GoogleGrocery,https://maps.google.com/?cid=3341840908696380805,,,
Habitat for Humanity in Wayne County ReStore,store,"2700 Akron Rd, Wooster, OH 44691, USA",40.8305458,-81.9091863,Wooster,OH,44691,(330) 264-4999,https://www.waynehabitat.com/,https://maps.google.com/?cid=5723198971997085875,,,
Dunham's Sports,store,"3934 Burbank Rd Suite B, Wooster, OH 44691, USA",40.8476444,-81.9474798,Wooster,OH,44691,(330) 345-1367,https://www.dunhamssports.com/store-details?storeID=148&city=WOOSTER&state=OH,https://maps.google.com/?cid=12601137663010473921,,,
Boot Barn,store,"3786 Burbank Rd Suite 430, Wooster, OH 44691, USA",40.8443674,-81.94553429999999,Wooster,OH,44691,(330) 621-0373,https://www.bootbarn.com/,https://maps.google.com/?cid=5729465367736616283,,,
JK Gift Shop Wooster Ohio,store,"114 E Liberty St, Wooster, OH 44691, USA",40.79844430000001,-81.9396502,Wooster,OH,44691,(330) 725-7623,http://www.shopjkgifts.com/,https://maps.google.com/?cid=1369796991048096497,,,
T.J. Maxx,store,"4369 Burbank Rd, Wooster, OH 44691, USA",40.85250389999999,-81.9468626,Wooster,OH,44691,(330) 345-2205,https://tjmaxx.tjx.com/store/index.jsp,https://maps.google.com/?cid=13783392654493460923,,,
Twisted Antiques and Uniques,store,"3030 Dover Rd, Wooster, OH 44691, USA",40.767399,-81.9045725,Wooster,OH,44691,(330) 988-2707,http://www.twistedantiques.com/,https://maps.google.com/?cid=4497543069248363435,,,
Dollar1,store,"Portage Square Shopping Center, 1981 Portage Rd Suite B, Wooster, OH 44691, USA",40.8275425,-81.9117303,Wooster,OH,44691,(330) 264-8776,,https://maps.google.com/?cid=1842198559042159361,,,
Neighborhood Pantry LLC,store,"7212 Ashland Rd, Wooster, OH 44691, USA",40.8240016,-82.06405769999999,Wooster,OH,44691,(330) 264-7010,https://www.facebook.com/TheNeighborhoodPantry/info/?section=hours&tab=page_info,https://maps.google.com/?cid=57245034481885033,,,
Centerra Country Store Wooster,store,"1009 W Old Lincoln Way, Wooster, OH 44691, USA",40.8001615,-81.95392559999999,Wooster,OH,44691,(330) 264-9925,http://www.centerracoop.com/,https://maps.google.com/?cid=16561606417621670125,,,
Uptown Downtown,store,"215 W Liberty St, Wooster, OH 44691, USA",40.7979736,-81.9420651,Wooster,OH,44691,(330) 262-9735,,https://maps.google.com/?cid=12388885490483836580,,,
Wooster Natural Foods,store,"138 E Liberty St #4346, Wooster, OH 44691, USA",40.79849950000001,-81.939052,Wooster,OH,44691,(330) 264-9797,http://woosternaturalfoods.blogspot.com/,https://maps.google.com/?cid=395914692463316045,,,
Walmart Supercenter,store,"3883 Burbank Rd, Wooster, OH 44691, USA",40.8476225,-81.9415471,Wooster,OH,44691,(330) 345-8955,https://www.walmart.com/store/1812-wooster-oh/,https://maps.google.com/?cid=6547304834932233014,,,
Buehler's Fresh Foods Wooster Milltown,store,"3540 Burbank Rd, Wooster, OH 44691, USA",40.8423239,-81.94461749999999,Wooster,OH,44691,(330) 345-5908,http://www.buehlers.com/,https://maps.google.com/?cid=2633977361509890122,,,
Mikes Food Market,store,"4510 Cleveland Rd, Wooster, OH 44691, USA",40.8543207,-81.92600420000001,Wooster,OH,44691,(330) 804-0262,,https://maps.google.com/?cid=2975153629676462581,,,
Gift Corner,store,"131 S Market St, Wooster, OH 44691, USA",40.7974685,-81.9399705,Wooster,OH,44691,(330) 264-6117,,https://maps.google.com/?cid=7556776226538863276,,,
Portage Square Shopping Center,store,"Wooster, OH 44691, USA",40.8273895,-81.9128964,Wooster,OH,44691,,,https://maps.google.com/?cid=3862297190699714689,,,
Save A Lot,store,"1945 Cleveland Rd, Wooster, OH 44691, USA",40.8237419,-81.9314193,Wooster,OH,44691,(330) 202-9084,https://savealot.com/stores/24520?utm_campaign=gmb&utm_medium=organic&utm_source=google,https://maps.google.com/?cid=389403268257593466,,,
Lynch's Irish Imports and Gifts,store,"116 S Market St, Wooster, OH 44691, USA",40.7978445,-81.9395091,Wooster,OH,44691,(330) 601-0160,https://www.facebook.com/lynchsirishimports/,https://maps.google.com/?cid=18151032224294277456,,,
The Caring Closet of Wooster + Boutique,store,"879 W Main St, Smithville, OH 44677, USA",40.8559177,-81.8702831,Smithville,OH,44677,(330) 439-5800,https://www.caringclosetwooster.org/,https://maps.google.com/?cid=406189961099464638,,,
"Boots, Shoes and More",store,"3777 Cleveland Rd, Wooster, OH 44691, USA",40.84558029999999,-81.92793619999999,Wooster,OH,44691,(330) 601-1301,http://www.bootsshoesmore.com/,https://maps.google.com/?cid=16001294038080323392,,,
Pine Tree Barn,store,"4374 Shreve Rd, Wooster, OH 44691, USA",40.7448981,-81.98394809999999,Wooster,OH,44691,(330) 264-1014,https://www.pinetreebarn.com/,https://maps.google.com/?cid=18406055565291297285,,,
Great Finds Resale,store,"328 E Liberty St, Wooster, OH 44691, USA",40.79911799999999,-81.935997,Wooster,OH,44691,(330) 263-3000,http://www.greatfindsresale.com/,https://maps.google.com/?cid=11090001043524921209,,,
Ollie's Bargain Outlet,store,"1831 Portage Rd, Wooster, OH 44691, USA",40.8270339,-81.9140548,Wooster,OH,44691,(330) 804-6000,http://www.ollies.us/,https://maps.google.com/?cid=16834027727629931544,,,
Marc's,store,"1799 Portage Rd, Wooster, OH 44691, USA",40.8269781,-81.9137492,Wooster,OH,44691,(330) 234-5600,https://www.marcs.com/store-finder/Marc-s-Wooster,https://maps.google.com/?cid=7674587250658731162,,,
The Shoppes on Burbank,store,"4369 Burbank Rd, Wooster, OH 44691, USA",40.8525546,-81.94689559999999,Wooster,OH,44691,(216) 378-4022,,https://maps.google.com/?cid=10320990359763134444,,,
Friendtique,store,"223 W Liberty St, Wooster, OH 44691, USA",40.7981648,-81.9422695,Wooster,OH,44691,(330) 262-2012,https://www.friendtique.org/,https://maps.google.com/?cid=1813382353592558167,,,
Local Roots Market & Café,store,"140 S Walnut St, Wooster, OH 44691, USA",40.79722220000001,-81.9411111,Wooster,OH,44691,(330) 263-5336,http://www.localrootswooster.com/,https://maps.google.com/?cid=7424488131517633858,,,
Mission: Thrift Wooster,store,"2149 Portage Rd, Wooster, OH 44691, USA",40.82767700000001,-81.9091517,Wooster,OH,44691,(330) 804-0038,http://missionthrift.com/,https://maps.google.com/?cid=9581995566821679019,,,
Olive Lane Oils and Vinegars,store,"137 W Liberty St, Wooster, OH 44691, USA",40.7981533,-81.9410221,Wooster,OH,44691,(330) 601-1645,http://olivelaneoils.com/,https://maps.google.com/?cid=13262315784806581856,,,
Olde Crows Homestead,store,"764 S Honeytown Rd, Wooster, OH 44691, USA",40.7893504,-81.8790782,Wooster,OH,44691,(330) 465-4424,http://www.theoldecrowshomestead.com/,https://maps.google.com/?cid=8143618927540374530,,,
Scenic Valley Surplus,store,"10797 Kidron Rd, Fredericksburg, OH 44627, USA",40.6686258,-81.7467108,Fredericksburg,OH,44627,(330) 275-0138,,https://maps.google.com/?cid=4272240824029763803,,,
The Oak Cupboard,store,"883 W Main St, Smithville, OH 44677, USA",40.8558731,-81.870903,Smithville,OH,44677,(330) 669-2140,https://theoakcupboard.cloveronline.com/,https://maps.google.com/?cid=1437318286177703069,,,
Buehler's Towne Market,store,"336 N Market St STE A, Wooster, OH 44691, USA",40.801395,-81.94133699999999,Wooster,OH,44691,(330) 264-9900,https://www.buehlers.com/,https://maps.google.com/?cid=16807916857058949786,,,
Discount Drug Mart,store,"629 Beall Ave, Wooster, OH 44691, USA",40.8056423,-81.93421599999999,Wooster,OH,44691,(330) 264-8404,http://www.discount-drugmart.com/,https://maps.google.com/?cid=4195532277906906480,,,
Dee's Hallmark Shop,store,"Wayne Towne Plaza, 4055 Burbank Rd, Wooster, OH 44691, USA",40.84965009999999,-81.9441473,Wooster,OH,44691,(330) 345-6005,https://stores.hallmark.com/oh/wooster/dees-hallmark-shop-wooster-oh-025877.html,https://maps.google.com/?cid=16031233112949239054,,,
Liberty Street Commons,store,"Liberty Street Commons, 146 E Liberty St, Wooster, OH 44691, USA",40.7985692,-81.93874149999999,Wooster,OH,44691,(330) 725-6767,https://www.roseplaces.com/properties/wooster-downtown-arcade-storefronts-and-offices-liberty-street-marketplace,https://maps.google.com/?cid=362775558606744395,,,
Jodi's Closet,store,"243 E Liberty St #2, Wooster, OH 44691, USA",40.7984196,-81.937517,Wooster,OH,44691,(330) 601-1250,,https://maps.google.com/?cid=6508286422969836946,,,
Timeless Treasures,store,"5367 Back Orrville Rd, Wooster, OH 44691, USA",40.8283229,-81.8698564,Wooster,OH,44691,(330) 262-8463,https://www.facebook.com/pages/Timeless-Treasures/1445333905774396,https://maps.google.com/?cid=13798602663448533743,,,
Fleet Feet Wooster,store,"148 W Liberty St, Wooster, OH 44691, USA",40.7978635,-81.9412531,Wooster,OH,44691,(330) 262-3000,http://fleetfeet.com/,https://maps.google.com/?cid=3795429664450937892,,,
Ride On,store,"146 W South St, Wooster, OH 44691, USA",40.796677,-81.9407718,Wooster,OH,44691,(330) 345-2453,http://www.rideonwooster.com/,https://maps.google.com/?cid=823803201078001767,,,
Michaels,store,"3934 Burbank Rd, Wooster, OH 44691, USA",40.847593,-81.94785550000002,Wooster,OH,44691,(330) 345-5012,https://locations.michaels.com/oh/wooster/8325/?utm_source=Google&utm_medium=Maps&utm_campaign=Google+Places,https://maps.google.com/?cid=17995773003236120948,,,
Goodwill Wooster Thrift,store,"149 W Milltown Rd, Wooster, OH 44691, USA",40.8439321,-81.9411391,Wooster,OH,44691,(330) 262-7196,http://www.goodwillconnect.org/,https://maps.google.com/?cid=3982383990534909540,,,
Blackbird Records,store,"126 S Market St, Wooster, OH 44691, USA",40.7977333,-81.93948259999999,Wooster,OH,44691,(330) 804-0044,,https://maps.google.com/?cid=1877708518346142698,,,
Hartzler Family Dairy,store,"5454 Cleveland Rd, Wooster, OH 44691, USA",40.8655777,-81.9232435,Wooster,OH,44691,(330) 345-8190,http://www.hartzlerdairy.com/,https://maps.google.com/?cid=68050606907148260,,,
Minit Mart,store,"825 Dover Rd, Wooster, OH 44691, USA",40.7763335,-81.9295681,Wooster,OH,44691,(330) 262-5900,http://www.minitmart.com/,https://maps.google.com/?cid=18279032644950671856,,,
Best Price LLC,store,"516 Beall Ave, Wooster, OH 44691, USA",40.80412620000001,-81.93467319999999,Wooster,OH,44691,(330) 264-7293,,https://maps.google.com/?cid=17763489201161131262,,,
Tractor Supply Co.,store,"4166 Burbank Rd, Wooster, OH 44691, USA",40.8498019,-81.9492684,Wooster,OH,44691,(330) 345-7702,https://www.tractorsupply.com/tsc/store_Wooster-OH-44691_352?utm_source=localgmblisting&utm_medium=organic,https://maps.google.com/?cid=13287114205789376300,,,
Maurices,store,"4003 Burbank Rd Space 11, Wooster, OH 44691, USA",40.8491884,-81.9432791,Wooster,OH,44691,(330) 345-6602,https://locations.maurices.com/us/oh/wooster/4003-burbank-road,https://maps.google.com/?cid=17828821867960705142,,,
Family Dollar,store,"115 N Grant St, Wooster, OH 44691, USA",40.7979464,-81.94274999999999,Wooster,OH,44691,(234) 249-1199,https://locations.familydollar.com/oh/wooster/115-n-grant-st?utm_source=google&utm_medium=organic&utm_campaign=maps,https://maps.google.com/?cid=12688244242973434221,,,
HighPoint Furniture - Wooster,store,"2995 Cleveland Rd, Wooster, OH 44691, USA",40.83660160000001,-81.9284955,Wooster,OH,44691,(330) 601-0611,https://www.highpointfurniturewooster.com/,https://maps.google.com/?cid=758540033710929499,,,
Main Street Wooster,store,"377 W Liberty St, Wooster, OH 44691, USA",40.79765220000001,-81.94556589999999,Wooster,OH,44691,(330) 262-6222,http://mainstreetwooster.org/,https://maps.google.com/?cid=4245233187075439383,,,
Buehler's Fresh Foods Wooster Milltown,supermarket,"3540 Burbank Rd, Wooster, OH 44691, USA",40.8423239,-81.94461749999999,Wooster,OH,44691,(330) 345-5908,http://www.buehlers.com/,https://maps.google.com/?cid=2633977361509890122,,,
Meijer,supermarket,"4845 Burbank Rd, Wooster, OH 44691, USA",40.85919570000001,-81.94900179999999,Wooster,OH,44691,(330) 222-6840,https://www.meijer.com/shopping/store-locator/330.html?cmpid=LM:Web::::05112021::GoogleGrocery,https://maps.google.com/?cid=3341840908696380805,,,
Marc's,supermarket,"1799 Portage Rd, Wooster, OH 44691, USA",40.8269781,-81.9137492,Wooster,OH,44691,(330) 234-5600,https://www.marcs.com/store-finder/Marc-s-Wooster,https://maps.google.com/?cid=7674587250658731162,,,
Buehler's Fresh Foods Orrville,supermarket,"1114 W High St, Orrville, OH 44667, USA",40.8432888,-81.7779611,Orrville,OH,44667,(330) 683-2060,http://www.buehlers.com/,https://maps.google.com/?cid=4092507455232503863,,,
Buehler's Towne Market,supermarket,"336 N Market St STE A, Wooster, OH 44691, USA",40.801395,-81.94133699999999,Wooster,OH,44691,(330) 264-9900,https://www.buehlers.com/,https://maps.google.com/?cid=16807916857058949786,,,
Sweethaven,supermarket,"405 W South St, Shreve, OH 44676, USA",40.6796684,-82.0276107,Shreve,OH,44676,(330) 567-2045,https://sweethavenshreve.com/,https://maps.google.com/?cid=11214142242393363688,,,
Save A Lot,supermarket,"1945 Cleveland Rd, Wooster, OH 44691, USA",40.8237419,-81.9314193,Wooster,OH,44691,(330) 202-9084,https://savealot.com/stores/24520?utm_campaign=gmb&utm_medium=organic&utm_source=google,https://maps.google.com/?cid=389403268257593466,,,
Country Hilltop Market,supermarket,"9696 Benner Rd, Rittman, OH 44270, USA",40.9179847,-81.7828833,Rittman,OH,44270,(330) 925-0071,,https://maps.google.com/?cid=2791113823345150141,,,
Wooster Natural Foods,supermarket,"138 E Liberty St #4346, Wooster, OH 44691, USA",40.79849950000001,-81.939052,Wooster,OH,44691,(330) 264-9797,http://woosternaturalfoods.blogspot.com/,https://maps.google.com/?cid=395914692463316045,,,
Prairie Lane Market,supermarket,"Unnamed Road, Big Prairie, OH 44611, USA",40.6335295,-82.082127,Big Prairie,OH,44611,,,https://maps.google.com/?cid=9622440452409380667,,,
Shady View Pantry,supermarket,"3556 Zuercher Rd, Dalton, OH 44618, USA",40.756093,-81.7310562,Dalton,OH,44618,(330) 857-8159,https://justplainbusiness.com/shady-view-pantry/,https://maps.google.com/?cid=15345919160676061893,,,
Neighborhood Pantry LLC,supermarket,"7212 Ashland Rd, Wooster, OH 44691, USA",40.8240016,-82.06405769999999,Wooster,OH,44691,(330) 264-7010,https://www.facebook.com/TheNeighborhoodPantry/info/?section=hours&tab=page_info,https://maps.google.com/?cid=57245034481885033,,,
Kidron Town & Country Market,supermarket,"4959 Kidron Rd, Kidron, OH 44636, USA",40.739364,-81.745643,Kidron,OH,44636,(330) 857-2131,http://kidrontownandcountry.com/,https://maps.google.com/?cid=1244901797166403236,,,
Maysville Country Market,supermarket,"Mt Hope Rd, Apple Creek, OH 44606, USA",40.69493,-81.7848826,Apple Creek,OH,44606,(330) 695-3245,,https://maps.google.com/?cid=4009935902007682765,,,
ALDI,supermarket,"2249 Akron Rd, Wooster, OH 44691, USA",40.82724049999999,-81.90769069999999,Wooster,OH,44691,(855) 955-2534,https://stores.aldi.us/oh/wooster/2249-akron-rd?utm_source=google&utm_medium=local&utm_campaign=brand&utm_content=storepage_webclick,https://maps.google.com/?cid=4808106410605235596,,,
Walmart Supercenter,supermarket,"3883 Burbank Rd, Wooster, OH 44691, USA",40.8476225,-81.9415471,Wooster,OH,44691,(330) 345-8955,https://www.walmart.com/store/1812-wooster-oh/,https://maps.google.com/?cid=6547304834932233014,,,
Sayre's Marketplace,supermarket,"133 E Main St, Smithville, OH 44677, USA",40.86342589999999,-81.85882099999999,Smithville,OH,44677,(330) 669-2572,,https://maps.google.com/?cid=5625561180319132020,,,
ALDI,supermarket,"3743 Burbank Rd, Wooster, OH 44691, USA",40.84539520000001,-81.942878,Wooster,OH,44691,(855) 955-2534,https://stores.aldi.us/oh/wooster/3743-burbank-road?utm_source=google&utm_medium=local&utm_campaign=brand&utm_content=storepage_webclick,https://maps.google.com/?cid=11998414176609311934,,,
Weaver Basic Foods,supermarket,"8439 Township Rd 527, Shreve, OH 44676, USA",40.6486676,-82.01599879999999,Shreve,OH,44676,(330) 567-2569,,https://maps.google.com/?cid=6778442057999711465,,,
Mikes Food Market,supermarket,"4510 Cleveland Rd, Wooster, OH 44691, USA",40.8543207,-81.92600420000001,Wooster,OH,44691,(330) 804-0262,,https://maps.google.com/?cid=2975153629676462581,,,
Save A Lot,supermarket,"401 Hostetler Rd, Orrville, OH 44667, USA",40.85517280000001,-81.7672707,Orrville,OH,44667,(330) 683-3337,https://savealot.com/stores/24664?utm_campaign=gmb&utm_medium=organic&utm_source=google,https://maps.google.com/?cid=6988520642295977744,,,
Local Roots Market & Café,supermarket,"140 S Walnut St, Wooster, OH 44691, USA",40.79722220000001,-81.9411111,Wooster,OH,44691,(330) 263-5336,http://www.localrootswooster.com/,https://maps.google.com/?cid=7424488131517633858,,,
Red Tomato Market,supermarket,"16000 E Main St, Mt Eaton, OH 44659, USA",40.6939153,-81.699702,Mount Eaton,OH,44659,(330) 359-8100,http://www.redtomatomarketfoods.com/,https://maps.google.com/?cid=12754667095224734548,,,
Buehler's Fresh Foods Wadsworth,supermarket,"175 Great Oaks Trail, Wadsworth, OH 44281, USA",41.0474556,-81.732,Wadsworth,OH,44281,(330) 336-3588,http://www.buehlers.com/,https://maps.google.com/?cid=10595547107304820199,,,
East Union Bulk Food,supermarket,"9089 Lincoln Way E, Orrville, OH 44667, USA",40.79516739999999,-81.81383,Orrville,OH,44667,(330) 682-2100,https://justplainbusiness.com/east-union-bulk-foods/,https://maps.google.com/?cid=15510463909939902040,,,
Rittman IGA,supermarket,"220 N Main St, Rittman, OH 44270, USA",40.9792365,-81.7803682,Rittman,OH,44270,(330) 925-9502,http://www.rittmaniga.com/,https://maps.google.com/?cid=9447744157259427920,,,
JABELLA'S MARKET,supermarket,"207 W Main St, Wilmot, OH 44689, USA",40.6565078,-81.6329312,Wilmot,OH,44689,(330) 323-9640,,https://maps.google.com/?cid=3218170385647297392,,,
Wayne Towne Plaza,supermarket,"3883 Burbank Rd, Wooster, OH 44691, USA",40.8480727,-81.9433699,Wooster,OH,44691,(330) 345-7493,,https://maps.google.com/?cid=928776306154139330,,,
Giant Eagle Supermarket,supermarket,"825 Ambassador Dr, Wadsworth, OH 44281, USA",41.0450401,-81.69577780000002,Wadsworth,OH,44281,(330) 336-8733,https://www.gianteagle.com/stores/oh/wadsworth/wadsworth-giant-eagle/4601?utm_source=google&utm_medium=organic&utm_campaign=ge_ll,https://maps.google.com/?cid=68129819446058870,,,
Save A Lot,supermarket,"204-208 High St, Wadsworth, OH 44281, USA",41.02833589999999,-81.7302346,Wadsworth,OH,44281,(330) 331-7495,https://savealot.com/stores/60158?utm_campaign=gmb&utm_medium=organic&utm_source=google,https://maps.google.com/?cid=17408749887304001086,,,
Discount Drug Mart,supermarket,"629 Beall Ave, Wooster, OH 44691, USA",40.8056423,-81.93421599999999,Wooster,OH,44691,(330) 264-8404,http://www.discount-drugmart.com/,https://maps.google.com/?cid=4195532277906906480,,,
Rabers Produce,supermarket,"8728 Kidron Rd, Apple Creek, OH 44606, USA",40.6918472,-81.7456156,Apple Creek,OH,44606,,,https://maps.google.com/?cid=16806594712939029115,,,
Maurer Farms,supermarket,"2901 Batdorf Rd, Wooster, OH 44691, USA",40.7624386,-81.96346679999999,Wooster,OH,44691,(330) 264-2285,https://www.maurersberriesvegs.com/,https://maps.google.com/?cid=5033877195298786865,,,
Troyer Market,supermarket,"5201 Co Rd 77, Millersburg, OH 44654, USA",40.5531379,-81.7826793,Millersburg,OH,44654,(330) 893-3786,http://www.troyerscountrymarket.com/,https://maps.google.com/?cid=1853792014577682042,,,
Restaurant at Buehler's Towne Market Cafe,supermarket,"336 N Market St B, Wooster, OH 44691, USA",40.8013418,-81.9414618,Wooster,OH,44691,(330) 264-9900,https://www.buehlers.com/buehlers-restaurant-menu/,https://maps.google.com/?cid=8647280836419858566,,,
Miller Brothers Grocery Inc,supermarket,"711 Wooster St, Lodi, OH 44254, USA",41.025856,-81.9969024,Lodi,OH,44254,(330) 948-1440,http://millersmarkets.net/,https://maps.google.com/?cid=17569012186771538992,,,
The J.M. Smucker Co Store,supermarket,"333 Wadsworth Rd, Orrville, OH 44667, USA",40.80272629999999,-81.7629619,Orrville,OH,44667,(330) 684-1500,https://www.jmsmucker.com/smucker-store,https://maps.google.com/?cid=9047641485615179180,,,
Farmside Country Store,supermarket,"6950 Township Rd 362, Millersburg, OH 44654, USA",40.60016009999999,-81.7998875,Millersburg,OH,44654,(330) 600-8161,,https://maps.google.com/?cid=15291202693420739934,,,
Family Dollar,supermarket,"115 N Grant St, Wooster, OH 44691, USA",40.7979464,-81.94274999999999,Wooster,OH,44691,(234) 249-1199,https://locations.familydollar.com/oh/wooster/115-n-grant-st?utm_source=google&utm_medium=organic&utm_campaign=maps,https://maps.google.com/?cid=12688244242973434221,,,
"Buehler Food Markets, Inc. (Headquarters)",supermarket,"1401 Old Mansfield Rd, Wooster, OH 44691, USA",40.8049635,-81.9598103,Wooster,OH,44691,(330) 264-4355,http://www.buehlers.com/,https://maps.google.com/?cid=6173658775937016094,,,
Ashery Country Store,supermarket,"8922 OH-241, Fredericksburg, OH 44627, USA",40.653492,-81.764803,Fredericksburg,OH,44627,(330) 359-5615,http://www.asherycountrystore.com/,https://maps.google.com/?cid=15066765241429189150,,,
La Placita Mexican,supermarket,"513 N Main St, Orrville, OH 44667, USA",40.8445594,-81.7646589,Orrville,OH,44667,(330) 930-0288,https://order.online/business/la-placita-mexican-12995713,https://maps.google.com/?cid=7083493050819467005,,,
Stake's IGA,supermarket,"430 N Jefferson St, Loudonville, OH 44842, USA",40.639853,-82.22699,Loudonville,OH,44842,(419) 994-3204,http://www.stakesiga.com/,https://maps.google.com/?cid=11193814629438152070,,,
Marc's Stores,supermarket,"241 Wooster Road North, Barberton, OH 44203, USA",41.0161403,-81.60367749999999,Barberton,OH,44203,(234) 516-4010,https://www.marcs.com/store-finder/Marc%E2%80%99s-Barberton,https://maps.google.com/?cid=17526358060730110231,,,
Rodhe's IGA Marketplace,supermarket,"2105 Glen Dr, Millersburg, OH 44654, USA",40.5438313,-81.9130497,Millersburg,OH,44654,(330) 674-7075,http://www.rodhesiga.com/StoreLocator/Store_S.las?S=,https://maps.google.com/?cid=2665407021043319532,,,
Walnut Creek Cheese & Market,supermarket,"2641 OH-39, Walnut Creek, OH 44687, USA",40.5281982,-81.71710829999999,Walnut Creek,OH,44687,(330) 852-2888,http://www.walnutcreekcheese.com/,https://maps.google.com/?cid=7993748413555341982,,,
ALDI,supermarket,"174 Park Center Dr, Wadsworth, OH 44281, USA",41.0489368,-81.7265676,Wadsworth,OH,44281,(855) 955-2534,https://stores.aldi.us/oh/wadsworth/174-park-centre-drive?utm_source=google&utm_medium=local&utm_campaign=brand&utm_content=storepage_webclick,https://maps.google.com/?cid=4182644361882710188,,,
Brewster IGA,supermarket,"258 Wabash Ave S, Brewster, OH 44613, USA",40.71069680000001,-81.5976342,Brewster,OH,44613,(330) 767-3812,https://brewsteriga.net/,https://maps.google.com/?cid=13930130757872489227,,,
The Greater Wayne County Food Bank,supermarket,"807 Spruce St, Wooster, OH 44691, USA",40.7900486,-81.940707,Wooster,OH,44691,(330) 683-2242,,https://maps.google.com/?cid=13134000394818475450,,,
Walnut Creek Cheese & Market,supermarket,"4727 US-62, Millersburg, OH 44654, USA",40.5633034,-81.7918165,Millersburg,OH,44654,(330) 893-3273,http://walnutcreekcheese.com/,https://maps.google.com/?cid=11826858133312472916,,,
German Village Market,supermarket,"4900 Oak St, Millersburg, OH 44654, USA",40.5607684,-81.7990693,Millersburg,OH,44654,(330) 893-1800,http://www.germanvillagemarket.com/,https://maps.google.com/?cid=2543669254295897246,,,
Wooster Crossing,supermarket,"3786 Burbank Rd, Wooster, OH 44691, USA",40.8443014,-81.94619,Wooster,OH,44691,,http://www.chaseprop.com/properties/wooster-crossing/,https://maps.google.com/?cid=11776455914816688173,,,
Save A Lot,supermarket,"205 Wooster Road North, Barberton, OH 44203, USA",41.0156192,-81.603961,Barberton,OH,44203,(234) 571-4019,https://savealot.com/stores/60151?utm_campaign=gmb&utm_medium=organic&utm_source=google,https://maps.google.com/?cid=2477727537182445973,,,
Harvey's Market,supermarket,"Millersburg, OH 44654, USA",40.5545071,-81.91791979999999,Millersburg,OH,44654,(330) 231-0786,http://www.harveysmarketllc.com/,https://maps.google.com/?cid=14618174880289403632,,,
Buehler's Fresh Foods Medina River Styx,supermarket,"3626 Medina Rd, Medina, OH 44256, USA",41.13478840000001,-81.8171268,Medina,OH,44256,(330) 725-5000,http://www.buehlers.com/,https://maps.google.com/?cid=2165328970337701842,,,
Bauman Orchards Inc,supermarket,"161 Rittman Ave, Rittman, OH 44270, USA",40.9711111,-81.7986111,Rittman,OH,44270,(330) 925-6861,http://www.baumanorchards.com/,https://maps.google.com/?cid=11383231141955820698,,,
Acme Fresh Market,supermarket,"3200 Greenwich Rd, Norton, OH 44203, USA",41.0243422,-81.6393763,Norton,OH,44203,(330) 825-0896,https://www.acmestores.com/,https://maps.google.com/?cid=3575489847196995623,,,
Minit Mart,supermarket,"825 Dover Rd, Wooster, OH 44691, USA",40.7763335,-81.9295681,Wooster,OH,44691,(330) 262-5900,http://www.minitmart.com/,https://maps.google.com/?cid=18279032644950671856,,,
Wayne's Country Market,supermarket,"2440 Lexington Ave, Mansfield, OH 44907, USA",40.69760019999999,-82.56187059999999,Mansfield,OH,44907,(419) 884-1993,http://waynescountrymarket.com/,https://maps.google.com/?cid=18337969637765271757,,,
Dollar General,supermarket,"1688 Cleveland Rd, Wooster, OH 44691, USA",40.8193372,-81.93644479999999,Wooster,OH,44691,(330) 439-0630,https://www.dollargeneral.com/store-directory/oh/wooster/21228,https://maps.google.com/?cid=11685075219429833458,,,
Barnes Preserve,park,"3396 Sylvan Rd, Wooster, OH 44691, USA",40.7780911,-81.8972332,Wooster,OH,44691,,https://www.waynecountyparkdistrict.org/barnes-preserve/,https://maps.google.com/?cid=7113610527275908165,,,
Christmas Run Park,park,"Park Ave, Wooster, OH 44691, USA",40.8066111,-81.94523629999999,Wooster,OH,44691,(330) 263-5207,http://www.woosteroh.com/,https://maps.google.com/?cid=8275576019920518224,,,
Wooster Memorial Park (formerly Spangler),park,"5197 Silver Rd, Wooster, OH 44691, USA",40.8110073,-82.02304439999999,Wooster,OH,44691,,http://www.friendsofwmp.com/,https://maps.google.com/?cid=9264370593413186044,,,
Freedlander Park,park,"400 Hillside Dr, Wooster, OH 44691, USA",40.83841230000001,-81.9356274,Wooster,OH,44691,(330) 263-5200,http://www.woosteroh.com/living-here/parks/freedlander-park,https://maps.google.com/?cid=17093233375448751621,,,
Oak Hill Park,park,"Donald & Alice Noble Trail, Wooster, OH 44691, USA",40.83568770000001,-81.95606819999999,Wooster,OH,44691,(330) 263-5203,https://www.woosteroh.com/parks/oak-hill-park,https://maps.google.com/?cid=15052999346407240552,,,
Johnson Woods State Nature Preserve,park,"13240 Fox Lake Rd, Marshallville, OH 44645, USA",40.8892529,-81.7443979,Marshallville,OH,44645,,https://ohiodnr.gov/wps/portal/gov/odnr/go-and-do/plan-a-visit/find-a-property/johnson-woods-state-nature-preserve,https://maps.google.com/?cid=18291864613309468530,,,
Schellin Park,park,"427 Maple St, Wooster, OH 44691, USA",40.7945824,-81.9339215,Wooster,OH,44691,(330) 263-5275,http://www.woosteroh.com/living-here/parks/schellin-park,https://maps.google.com/?cid=627297683719324580,,,
"Evergreen Park, Kidron Park",park,"4434 Kidron Rd, Dalton, OH 44618, USA",40.7454671,-81.74087569999999,Dalton,OH,44618,,,https://maps.google.com/?cid=17073884714183896753,,,
Grosjean Park,park,"517-543 Freedlander Rd, Wooster, OH 44691, USA",40.7926046,-81.9286966,Wooster,OH,44691,,,https://maps.google.com/?cid=4983705230191526468,,,
Brown's Lake Bog Preserve,park,"Brown Rd, Shreve, OH 44676, USA",40.68297279999999,-82.0675693,Shreve,OH,44676,,https://www.nature.org/en-us/get-involved/how-to-help/places-we-protect/browns-lake-bog-preserve/?en_txn1=bl.ch_oh.eg.x.g,https://maps.google.com/?cid=16541765615385053136,,,
Prarie Lane Goose,park,"Wooster, OH 44691, USA",40.7378993,-81.9532466,Wooster,OH,44691,,,https://maps.google.com/?cid=9414141815452876930,,,
Smithville Village Park,park,"Park Dr, Smithville, OH 44677, USA",40.8631013,-81.8573375,Smithville,OH,44677,,https://thevillageofsmithville.com/parks-recreation/,https://maps.google.com/?cid=4492093830749758828,,,
Secret Park,park,"908 Beaver St, Orrville, OH 44667, USA",40.8304276,-81.7697044,Orrville,OH,44667,,,https://maps.google.com/?cid=1901853846264910200,,,
Clear Creek Park,park,"668 Venture Blvd, Wooster, OH 44691, USA",40.8072858,-81.96820389999999,Wooster,OH,44691,(330) 263-5275,https://www.woosteroh.com/parks,https://maps.google.com/?cid=2561916557892175031,,,
The Wilderness Center,park,"9877 Alabama Ave SW, Wilmot, OH 44689, USA",40.67205299999999,-81.64200199999999,Wilmot,OH,44689,(330) 359-5235,https://www.wildernesscenter.org/,https://maps.google.com/?cid=8531908655828323035,,,
Village Green Park,park,"41 S Freet St, Dalton, OH 44618, USA",40.79652759999999,-81.69149809999999,Dalton,OH,44618,,,https://maps.google.com/?cid=4291734851524731532,,,
Wayne County Park District,park,"3396 Sylvan Rd, Wooster, OH 44691, USA",40.7781131,-81.89715489999999,Wooster,OH,44691,(330) 465-7882,https://www.waynecountyparkdistrict.org/contact,https://maps.google.com/?cid=4787322645295848516,,,
Hilltop Park,park,"1700 W Church St, Orrville, OH 44667, USA",40.8418911,-81.78962109999999,Orrville,OH,44667,(330) 684-5000,http://orrville.com/,https://maps.google.com/?cid=12983729932670476283,,,
Funk Bottoms Wildlife Area,park,"10666 Blachleyville Rd, Wooster, OH 44691, USA",40.7567835,-82.1090013,Wooster,OH,44691,(330) 644-2293,https://ohiodnr.gov/go-and-do/plan-a-visit/find-a-property/funk-bottoms-wildlife-area,https://maps.google.com/?cid=6050746981784789924,,,
William J. Robertson Nature Preserve,park,"85 Morning Star Dr, Rittman, OH 44270, USA",40.9774408,-81.76458889999999,Rittman,OH,44270,(330) 925-2045,https://www.facebook.com/William-J-Robertson-Nature-Preserve-108503594711762/,https://maps.google.com/?cid=11857822929920824920,,,
Prairie Lane Lake Park,park,"4489 Prairie Ln, Wooster, OH 44691, USA",40.7447601,-81.94424409999999,Wooster,OH,44691,(330) 262-3322,http://prairielanelakepark.com/,https://maps.google.com/?cid=3397439979587077261,,,
Orr Park,park,"440 N Elm St, Orrville, OH 44667, USA",40.8446101,-81.7724501,Orrville,OH,44667,(330) 684-5070,http://www.orrville.com/parks,https://maps.google.com/?cid=12594982591862575812,,,
Christmas Run Playground,park,"47 Park Blvd, Wooster, OH 44691, USA",40.80703019999999,-81.9466396,Wooster,OH,44691,,,https://maps.google.com/?cid=12540357866018151154,,,
Jaycee Park,park,"926 Gasche St, Wooster, OH 44691, USA",40.80897609999999,-81.9309665,Wooster,OH,44691,,,https://maps.google.com/?cid=3936027355124354867,,,
Secrest Arboretum,park,"2122 Williams Rd, Wooster, OH 44691, USA",40.7829842,-81.9172033,Wooster,OH,44691,(330) 263-3761,https://secrest.osu.edu/home,https://maps.google.com/?cid=6298059560822788673,,,
Knights Field Sprayground,park,"701 Rebecca St, Wooster, OH 44691, USA",40.799401,-81.9291645,Wooster,OH,44691,,http://www.woosteroh.com/recreation/pools-sprayground,https://maps.google.com/?cid=9416239240277714843,,,
Wooster Memorial Park (Kenwood acres - ADA trails),park,"5197 Silver Rd, Wooster, OH 44691, USA",40.8113918,-82.0207041,Wooster,OH,44691,,https://www.friendsofwmp.com/kenwood-acres,https://maps.google.com/?cid=8299636055532395809,,,
Walton Woods,park,"1277-1299 Mechanicsburg Rd, Wooster, OH 44691, USA",40.8101021,-81.9625283,Wooster,OH,44691,,,https://maps.google.com/?cid=9561348899371588278,,,
Marshallville Community Park,park,"48 Park St, Marshallville, OH 44645, USA",40.9003062,-81.7379557,Marshallville,OH,44645,(330) 601-4074,,https://maps.google.com/?cid=17957570677030522811,,,
Killbuck Marsh Wildlife Area,park,"1691 Centerville Rd, Shreve, OH 44676, USA",40.671349,-81.966247,Shreve,OH,44676,(330) 567-3390,https://ohiodnr.gov/go-and-do/plan-a-visit/find-a-property/killbuck-marsh-wildlife-area,https://maps.google.com/?cid=11307353911428937140,,,
Kidron Community Park,park,"4434 Kidron Rd, Kidron, OH 44636, USA",40.7454671,-81.74087569999999,Kidron,OH,44636,,https://sites.google.com/site/kidroncommunitypark/,https://maps.google.com/?cid=12418970561445364409,,,
Creston Community Park,park,"10399 Wooster Pike, Creston, OH 44217, USA",40.9891203,-81.89237729999999,Creston,OH,44217,,,https://maps.google.com/?cid=7764944035320275620,,,
Vultures Knob,park,"4300 Mechanicsburg Rd, Wooster, OH 44691, USA",40.8509064,-81.98048469999999,Wooster,OH,44691,(234) 249-4327,https://vulturesknob.org/,https://maps.google.com/?cid=12312142329662918888,,,
Silver Creek Metro Park - Pheasant Run Area,park,"Norton, OH 44203, USA",40.99690229999999,-81.6756983,Norton,OH,44203,,,https://maps.google.com/?cid=7502999733390466879,,,
Holmesbrook Park,park,"660 College St, Wadsworth, OH 44281, USA",41.03154560000001,-81.7471727,Wadsworth,OH,44281,(330) 331-9653,https://medinacountyparks.com/index.php/parks/parks/holmesbrook-park,https://maps.google.com/?cid=11845829783951737270,,,
Silver Creek Metro Park,park,"5000 Hametown Rd, Norton, OH 44203, USA",40.9970377,-81.6817344,Norton,OH,44203,(330) 867-5511,https://www.summitmetroparks.org/silver-creek-metro-park.aspx,https://maps.google.com/?cid=14308249088547244156,,,
Gerstenslager Park,park,"1200-1298 Akron Rd, Wooster, OH 44691, USA",40.8146245,-81.9146021,Wooster,OH,44691,(330) 263-5275,,https://maps.google.com/?cid=5555553078141253260,,,
Cool Springs Wildlife Conservation Park,park,"2159 Co Hwy 37, Jeromesville, OH 44840, USA",40.74426939999999,-82.1309478,Jeromesville,OH,44840,(419) 289-3524,http://ashlandcountyparks.com/index.php/parks/cool-springs-wildlife-conservation-park,https://maps.google.com/?cid=15073999501045422744,,,
Acres of Fun,park,"3889 Friendsville Rd, Wooster, OH 44691, USA",40.84720470000001,-81.9388853,Wooster,OH,44691,(330) 345-4386,https://acresoffun.com/,https://maps.google.com/?cid=7691113731284579054,,,
Trolley Line Park,park,"Silvercrest Rd, Wadsworth, OH 44281, USA",41.0115213,-81.7113358,Wadsworth,OH,44281,,https://www.wadsworthcity.com/416/Multi-Purpose-Trail,https://maps.google.com/?cid=14412550126881131528,,,
Durling Park,park,"254 E Boyer St, Wadsworth, OH 44281, USA",41.0287805,-81.7240704,Wadsworth,OH,44281,(330) 335-1521,https://www.wadsworthcity.com/817/Durling-Park,https://maps.google.com/?cid=13673918635437040102,,,
Lawrence Township Park,park,"6235-6369 Manchester Ave NW, North Lawrence, OH 44666, USA",40.8686487,-81.60588369999999,North Lawrence,OH,44666,,https://lawrencetwp-oh.org/,https://maps.google.com/?cid=17112900011138023152,,,
Shreve Village Park,park,"250 Park Dr, Shreve, OH 44676, USA",40.6890095,-82.01781129999999,Shreve,OH,44676,,,https://maps.google.com/?cid=15463447069214245469,,,
County Line Trail,park,"County Line Trail, Rittman, OH 44270, USA",40.9718779,-81.7769175,Rittman,OH,44270,,,https://maps.google.com/?cid=12912253445446168685,,,
Diller Park,park,"Quinby Ave, Wooster, OH 44691, USA",40.8141962,-81.9387337,Wooster,OH,44691,(330) 263-5275,,https://maps.google.com/?cid=14244609647284314680,,,
Killbuck Lakes,park,"7996 White Rd, Burbank, OH 44214, USA",41.0050148,-81.9778625,Burbank,OH,44214,(330) 722-9364,https://medinacountyparks.com/index.php/parks/nature-preserves/killbuck-lakes,https://maps.google.com/?cid=14270310528331857011,,,
"Boathouse Area, Silver Creek Metro Parks",park,"5171 S Medina Line Rd, Norton, OH 44203, USA",40.9935774,-81.6867393,Norton,OH,44203,(330) 867-5511,http://www.summitmetroparks.org/,https://maps.google.com/?cid=6297134739116956623,,,
William J Robertson Nature Preserve (parking lot C),park,"X65P+P7, Rittman, OH 44270, USA",40.9592694,-81.7642879,Rittman,OH,44270,,,https://maps.google.com/?cid=10023793346159230570,,,
Memorial Park,park,"274 Grandview Ave, Wadsworth, OH 44281, USA",41.0216779,-81.7383617,Wadsworth,OH,44281,(330) 335-1521,https://www.wadsworthcity.com/823/Memorial-Park,https://maps.google.com/?cid=17175171097214642211,,,
Apple Creek Park,park,"Park St, Apple Creek, OH 44606, USA",40.7508816,-81.8306262,Apple Creek,OH,44606,,,https://maps.google.com/?cid=9770596780372665841,,,
Heartland Trail Trailhead,park,"50 E Market St, Marshallville, OH 44645, USA",40.9006795,-81.7277486,Marshallville,OH,44645,,https://www.waynecountytrails.org/TrailDevelopment.htm,https://maps.google.com/?cid=8864089871883050031,,,
Wooster Memorial Park-Education Area,park,"RX7C+6VR, Wooster, OH 44691, USA",40.8131571,-82.02786929999999,Wooster,OH,44691,(330) 234-3157,https://www.friendsofwmp.com/,https://maps.google.com/?cid=5654435607193904764,,,
Wintergreen Park,park,"630 Hillcrest Dr, Wadsworth, OH 44281, USA",41.0179769,-81.7116521,Wadsworth,OH,44281,,https://www.wadsworthcity.com/809/Wintergreen-Park,https://maps.google.com/?cid=1805672851867726313,,,
Holmes County Trail (Holmesville),park,"7499 OH-83, Holmesville, OH 44633, USA",40.617276,-81.9183695,Holmesville,OH,44633,,,https://maps.google.com/?cid=2319506531922872486,,,
Kidz Towne,park,"2918 Cleveland Rd, Wooster, OH 44691, USA",40.8352827,-81.9298984,Wooster,OH,44691,(330) 988-9035,https://www.kidztowne.com/,https://maps.google.com/?cid=1215326356037306712,,,
Breitenstine Park,park,"The end of, 37th St SW, Barberton, OH 44203, USA",40.99081169999999,-81.64494719999999,Barberton,OH,44203,,,https://maps.google.com/?cid=10710955330300372056,,,
Drake Park,park,"#0, West Salem, OH 44287, USA",40.96746419999999,-82.11795230000001,West Salem,OH,44287,,,https://maps.google.com/?cid=8161355904607050678,,,
Terraceview Park,park,"250 Terraceview Ave, Wadsworth, OH 44281, USA",41.01275940000001,-81.73336450000001,Wadsworth,OH,44281,,,https://maps.google.com/?cid=4871569642382163989,,,
Wooster Dog Park,park,"427 Maple St, Wooster, OH 44691, USA",40.7947243,-81.93451689999999,Wooster,OH,44691,(330) 263-5275,https://www.bringfido.com/attraction/parks/city/wooster_oh_us/,https://maps.google.com/?cid=7039984151933772352,,,
Memorial Park Pavilion #1,park,"353 Gates St, Doylestown, OH 44230, USA",40.9757128,-81.6956683,Doylestown,OH,44230,,,https://maps.google.com/?cid=3495051964880412192,,,
Comfort Suites,hotel,"965 Dover Rd, Wooster, OH 44691, USA",40.774145,-81.9275226,Wooster,OH,44691,(330) 439-0190,https://www.choicehotels.com/ohio/wooster/comfort-suites-hotels/oh649?mc=llgoxxpx,https://maps.google.com/?cid=15349422965163344712,,,
Days Inn by Wyndham Wooster,hotel,"789 E Milltown Rd, Wooster, OH 44691, USA",40.83980820000001,-81.9303663,Wooster,OH,44691,(330) 345-1500,https://www.wyndhamhotels.com/days-inn/wooster-ohio/days-inn-wooster/overview?CID=LC:iqv0j1dklijly45:70120&iata=00093796,https://maps.google.com/?cid=14456286466813081558,,,
Econo Lodge,hotel,"2137 Lincoln Way E, Wooster, OH 44691, USA",40.794935,-81.90642799999999,Wooster,OH,44691,(330) 264-8883,https://www.choicehotels.com/ohio/wooster/econo-lodge-hotels/oh131?mc=llgoxxpx,https://maps.google.com/?cid=13010066738142416161,,,
Quality Inn,hotel,"2055 Lincoln Way E, Wooster, OH 44691, USA",40.79496599999999,-81.907896,Wooster,OH,44691,(234) 249-1198,https://www.choicehotels.com/ohio/wooster/quality-inn-hotels/oh376?mc=llgoxxpx,https://maps.google.com/?cid=5455730396031853293,,,
Best Western Plus Wooster Hotel & Conference Center,hotel,"243 E Liberty St, Wooster, OH 44691, USA",40.7983069,-81.9371749,Wooster,OH,44691,(330) 264-7750,https://www.bestwestern.com/en_US/book/hotel-rooms.36082.html?iata=00171880&ssob=BLBWI0004G&cid=BLBWI0004G:google:gmb:36082,https://maps.google.com/?cid=810343576135033536,,,
St Paul Hotel,hotel,"203 S Market St, Wooster, OH 44691, USA",40.7967331,-81.9397674,Wooster,OH,44691,(330) 601-1900,http://stpaulhotelwooster.com/,https://maps.google.com/?cid=16665791670001778761,,,
Black Squirrel Inn,hotel,"636 College Ave, Wooster, OH 44691, USA",40.8057474,-81.9367362,Wooster,OH,44691,(330) 317-6627,http://www.blacksquirrelinn.com/,https://maps.google.com/?cid=3559760358057747199,,,
Hilton Garden Inn Wooster,hotel,"959 Dover Rd, Wooster, OH 44691, USA",40.7750832,-81.9283202,Wooster,OH,44691,(330) 202-7701,https://www.hilton.com/en/hotels/cakwogi-hilton-garden-inn-wooster/?SEO_id=GMB-AMER-GI-CAKWOGI&y_source=1_MjA4NTMyNS03MTUtbG9jYXRpb24ud2Vic2l0ZQ%3D%3D,https://maps.google.com/?cid=10193699273347851157,,,
Holiday Inn Express & Suites Wooster by IHG,hotel,"128 Riffel Rd, Wooster, OH 44691, USA",40.850981,-81.9430538,Wooster,OH,44691,(330) 601-1221,https://www.ihg.com/holidayinnexpress/hotels/us/en/wooster/cakwo/hoteldetail?cm_mmc=GoogleMaps-_-EX-_-US-_-CAKWO,https://maps.google.com/?cid=8902336839178762122,,,
Super 8 by Wyndham Seville,hotel,"6116 Speedway Dr, Seville, OH 44273, USA",41.03078219999999,-81.9097833,Seville,OH,44273,(330) 769-6823,https://www.wyndhamhotels.com/super-8/seville-ohio/super-8-seville/overview?CID=LC:yytq4fvvehxh7se:11213&iata=00093796,https://maps.google.com/?cid=9083648628720390833,,,
Cobblestone Hotel & Suites - Orrville,hotel,"1720 N Main St, Orrville, OH 44667, USA",40.8634739,-81.762965,Orrville,OH,44667,(330) 682-1711,http://www.staycobblestone.com/oh/orrville/,https://maps.google.com/?cid=13112649227511935315,,,
Quality Inn & Suites,hotel,"4949 Park Ave W, Seville, OH 44273, USA",41.034722,-81.86715099999999,Seville,OH,44273,(234) 295-0017,https://www.choicehotels.com/ohio/seville/quality-inn-hotels/oh096?mc=llgoxxpx,https://maps.google.com/?cid=18434880557732031491,,,
Hampton Inn Wooster,hotel,"4253 Burbank Rd, Wooster, OH 44691, USA",40.85169020000001,-81.9467612,Wooster,OH,44691,(330) 345-4424,https://www.hilton.com/en/hotels/wooohhx-hampton-wooster/?SEO_id=GMB-AMER-HX-WOOOHHX&y_source=1_MjA4NDEwMS03MTUtbG9jYXRpb24ud2Vic2l0ZQ%3D%3D,https://maps.google.com/?cid=9875485030249572908,,,
Super 8 by Wyndham Wooster,hotel,"969 Timken Rd, Wooster, OH 44691, USA",40.78829169999999,-81.9363891,Wooster,OH,44691,(330) 264-6211,https://www.wyndhamhotels.com/super-8/wooster-ohio/super-8-wooster/overview?CID=LC:yytq4fvvehxh7se:10279&iata=00093796,https://maps.google.com/?cid=11180006873279098598,,,
Inn At Amish Door,hotel,"1210 Winesburg St, Wilmot, OH 44689, USA",40.6540527,-81.6397247,Wilmot,OH,44689,(330) 359-7996,https://amishdoor.com/innatamishdoor,https://maps.google.com/?cid=11767881666446573288,,,
Landoll's Mohican Castle - Luxury Hotel in Central Ohio,hotel,"561 Township Road 3352, Loudonville, OH 44842, USA",40.57095640000001,-82.2340221,Loudonville,OH,44842,(419) 994-3427,http://landollsmohicancastle.com/,https://maps.google.com/?cid=437631193585690543,,,
Hotel Millersburg,hotel,"35 W Jackson St, Millersburg, OH 44654, USA",40.5540088,-81.9178072,Millersburg,OH,44654,(330) 674-1457,http://hotelmillersburg.com/,https://maps.google.com/?cid=5307570418925110546,,,
Hawthorn Extended Stay by Wyndham Seville,hotel,"5025 Park Ave W, Seville, OH 44273, USA",41.0346128,-81.86976829999999,Seville,OH,44273,(330) 769-5025,https://www.wyndhamhotels.com/hawthorn-extended-stay/seville-ohio/hawthorn-extended-stay-seville/overview?CID=LC:b84ll71au8zr1jm:30833&iata=00093796,https://maps.google.com/?cid=12209580613937642440,,,
Comfort Inn & Suites,hotel,"5 Park Center Dr, Wadsworth, OH 44281, USA",41.0476203,-81.725661,Wadsworth,OH,44281,(330) 336-7692,https://www.choicehotels.com/ohio/wadsworth/comfort-inn-hotels/oh296?mc=llgoxxpx,https://maps.google.com/?cid=12848306162470618421,,,
The Coxon House Inn | Hotel Wooster,hotel,"702 N Bever St, Wooster, OH 44691, USA",40.8065162,-81.9386165,Wooster,OH,44691,(330) 465-5373,http://thecoxonhouseinn.com/,https://maps.google.com/?cid=5062426293093203191,,,
The Westfield Inn,hotel,"6789 Greenwich Rd, Westfield Center, OH 44251, USA",41.0274671,-81.9349599,Westfield Center,OH,44251,(330) 887-6701,https://www.westfieldgroupcountryclub.com/Host_an_Event/Lodging,https://maps.google.com/?cid=10886220491232347666,,,
Huckleberry Suites,hotel,"150 W Liberty St, Wooster, OH 44691, USA",40.7976902,-81.9412274,Wooster,OH,44691,(330) 828-6513,,https://maps.google.com/?cid=1008571929101732050,,,
Gasche House Bed & Breakfast,hotel,"340 N Bever St, Wooster, OH 44691, USA",40.8018594,-81.9379977,Wooster,OH,44691,(646) 980-9060,,https://maps.google.com/?cid=16309876761621414839,,,
Casa Mirabella Guest House,hotel,"1626 Beall Ave, Wooster, OH 44691, USA",40.8182122,-81.93463299999999,Wooster,OH,44691,(330) 737-1683,https://casamirabellaguesthouse.my.canva.site/,https://maps.google.com/?cid=11552695926051632829,,,
Sojourner's Lodge & Cabin Suites,hotel,"2156 Durstine Rd, Dundee, OH 44624, USA",40.66794549999999,-81.6964837,Dundee,OH,44624,(330) 359-5320,https://www.sojournerslodgeohio.com/,https://maps.google.com/?cid=4278886964173764308,,,
Sleep Inn & Suites Mt. Hope near Auction & Event Center,hotel,"8050 OH-241, Millersburg, OH 44654, USA",40.6238063,-81.788741,Millersburg,OH,44654,(234) 301-0997,https://www.choicehotels.com/ohio/millersburg/sleep-inn-hotels/oh756?mc=llgoxxpx,https://maps.google.com/?cid=7601130480135586801,,,
Holiday Inn Express & Suites Millersburg by IHG,hotel,"1005 S Washington St, Millersburg, OH 44654, USA",40.5425513,-81.91601179999999,Millersburg,OH,44654,(234) 301-9005,https://www.ihg.com/holidayinnexpress/hotels/us/en/millersburg/msbws/hoteldetail?cm_mmc=GoogleMaps-_-EX-_-US-_-MSBWS,https://maps.google.com/?cid=14552841200272903957,,,
The Market Street Inn,hotel,"356 N Market St, Wooster, OH 44691, USA",40.801697,-81.9413129,Wooster,OH,44691,(330) 262-4085,http://www.marketstreetinnwooster.com/,https://maps.google.com/?cid=13690561633869217261,,,
Holiday Inn Express & Suites Wadsworth by IHG,hotel,"231 Park Center Dr, Wadsworth, OH 44281, USA",41.0475117,-81.72374789999999,Wadsworth,OH,44281,(330) 334-7666,https://www.ihg.com/holidayinnexpress/hotels/us/en/wadsworth/akrww/hoteldetail?cm_mmc=GoogleMaps-_-EX-_-US-_-AKRWW,https://maps.google.com/?cid=4640850921505065901,,,
The Inn at Honey Run,hotel,"6920 Co Rd 203, Millersburg, OH 44654, USA",40.5740117,-81.8734296,Millersburg,OH,44654,(330) 674-0011,https://www.innathoneyrun.com/,https://maps.google.com/?cid=16482923811320315266,,,
Tranquil Acres Cabins,hotel,"6815 OH-39, Millersburg, OH 44654, USA",40.5548046,-81.8678083,Millersburg,OH,44654,(330) 674-0996,http://www.tranquilacrescabins.com/,https://maps.google.com/?cid=12562542584990556401,,,
The Storybook Inn of Kidron,hotel,"4680 Kidron Rd, Dalton, OH 44618, USA",40.74281349999999,-81.744789,Dalton,OH,44618,(330) 828-1126,http://www.thestorybookinnofkidron.com/,https://maps.google.com/?cid=4477774495919340617,,,
Berlin Grande Hotel,hotel,"4787 Township Rd 366, Berlin, OH 44610, USA",40.56477839999999,-81.79387369999999,Berlin,OH,44610,(330) 403-3050,http://www.berlingrandehotel.com/,https://maps.google.com/?cid=12593346313612047902,,,
The Barn Inn Bed and Breakfast,hotel,"6838 Co Rd 203, Millersburg, OH 44654, USA",40.5726051,-81.86953729999999,Millersburg,OH,44654,(330) 674-7600,http://www.thebarninn.com/,https://maps.google.com/?cid=3463017892325887903,,,
Whispering Hills Jellystone Park Camp Resort,hotel,"8181 OH-514, Big Prairie, OH 44611, USA",40.644448,-82.066881,Big Prairie,OH,44611,(330) 567-2137,http://whisperinghillsjellystone.com/,https://maps.google.com/?cid=18123274462712684302,,,
Amish Country Comfort,hotel,"180 S School St, Millersburg, OH 44654, USA",40.552098,-81.91278799999999,Millersburg,OH,44654,(330) 763-1026,,https://maps.google.com/?cid=7680168456382935794,,,
Quality Inn,hotel,"741 US-250, Ashland, OH 44805, USA",40.8577927,-82.2684483,Ashland,OH,44805,(419) 281-8090,https://www.choicehotels.com/ohio/ashland/quality-inn-hotels/oh604?mc=llgoxxpx,https://maps.google.com/?cid=11581628026178201776,,,
Comfort Inn,hotel,"1102 Glen Dr, Millersburg, OH 44654, USA",40.542454,-81.915054,Millersburg,OH,44654,(330) 473-4774,https://www.choicehotels.com/ohio/millersburg/comfort-inn-hotels/oh027?mc=llgoxxpx,https://maps.google.com/?cid=12988641800194846331,,,
Hampton Inn & Suites Ashland,hotel,"2055 E Main St, Ashland, OH 44805, USA",40.8582703,-82.26908279999999,Ashland,OH,44805,(419) 903-0900,https://www.hilton.com/en/hotels/mfdashx-hampton-suites-ashland/?SEO_id=GMB-AMER-HX-MFDASHX&y_source=1_NDQ2NjA0NS03MTUtbG9jYXRpb24ud2Vic2l0ZQ%3D%3D,https://maps.google.com/?cid=4557059080283898175,,,
Roosevelt Glamping,hotel,"5510 Lattasburg Rd, Wooster, OH 44691, USA",40.832458,-82.039478,Wooster,OH,44691,(330) 465-6321,http://rooseveltglamping.com/,https://maps.google.com/?cid=5665160619107622528,,,
Simple Pleasures B & B,hotel,"1004 US-62, Wilmot, OH 44689, USA",40.6546244,-81.6554089,Wilmot,OH,44689,(330) 359-5684,http://www.simplepleasurebedandbreakfast.com/,https://maps.google.com/?cid=1253777366585411525,,,
The Atlee Suites,hotel,"4786 E Main St, Millersburg, OH 44654, USA",40.5610886,-81.7947851,Millersburg,OH,44654,(330) 275-3859,https://theatleesuites.com/,https://maps.google.com/?cid=18237978315582590901,,,
"The Wallhouse Hotel, Ascend Hotel Collection",hotel,"2870 Cove Ln, Walnut Creek, OH 44687, USA",40.54017489999999,-81.7260299,Walnut Creek,OH,44687,(234) 231-0279,https://www.choicehotels.com/ohio/walnut-creek/ascend-hotels/oh615?mc=llgoxxpx,https://maps.google.com/?cid=6024029799710999842,,,
The Guesthouse,hotel,"31 N Crawford St, Millersburg, OH 44654, USA",40.5546746,-81.9146635,Millersburg,OH,44654,(234) 301-0038,https://www.airbnb.com/rooms/20826634?check_in=2021-04-21&check_out=2021-04-22&s=67&unique_share_id=22e827ce-4da6-4738-8e55-dcda664e1e70,https://maps.google.com/?cid=1128672183210504898,,,
Comfort Suites Hotel and Conference Center,hotel,"4810 Township Rd 366, Berlin, OH 44610, USA",40.56233999999999,-81.79437999999999,Berlin,OH,44610,(330) 893-7400,https://www.choicehotels.com/ohio/berlin/comfort-suites-hotels/oh243?mc=llgoxxpx,https://maps.google.com/?cid=10029273894534801345,,,
Berlin Encore Hotel & Suites,hotel,"4365 OH-39, Berlin, OH 44610, USA",40.5510619,-81.7768119,Berlin,OH,44610,(888) 988-2414,https://www.berlinencorehotel.com/,https://maps.google.com/?cid=5324867443904956764,,,
Guggisberg Swiss Inn-Ohio Amish Country,hotel,"5025 OH-557, Millersburg, OH 44654, USA",40.5231231,-81.80382620000002,Millersburg,OH,44654,(330) 893-3600,http://www.guggisbergswissinn.com/,https://maps.google.com/?cid=12756988945401725344,,,
Trailside Lodging,hotel,"551 Koch St, Millersburg, OH 44654, USA",40.56306799999999,-81.924213,Millersburg,OH,44654,(330) 484-3509,http://trailsidelodgingohio.com/,https://maps.google.com/?cid=4712761011893179068,,,
Town & Country Camp Resort,hotel,"7555 Shilling Rd, West Salem, OH 44287, USA",40.9617057,-82.0722977,West Salem,OH,44287,(419) 853-4550,https://www.tccamp.com/,https://maps.google.com/?cid=14789691424113876671,,,
Orrville Inn,hotel,"10355 Lincoln Way E, Orrville, OH 44667, USA",40.7942648,-81.7921132,Orrville,OH,44667,(330) 854-4320,,https://maps.google.com/?cid=9951850523826092739,,,
Quality Inn & Suites Medina- Akron West,hotel,"2850 Medina Rd, Medina, OH 44256, USA",41.1354472,-81.790232,Medina,OH,44256,(234) 343-0125,https://www.choicehotels.com/ohio/medina/quality-inn-hotels/oh325?mc=llgoxxpx,https://maps.google.com/?cid=16948763151442310187,,,
Long Lake Park Campground,hotel,"8974 Long Lake Dr, Lakeville, OH 44638, USA",40.668145,-82.13566,Lakeville,OH,44638,(419) 827-2278,http://www.longlakeparkcampground.com/,https://maps.google.com/?cid=9165037126695130663,,,
Evergreen Park RV Resort Ltd,hotel,"16359 Dover Rd, Dundee, OH 44624, USA",40.6906423,-81.6960813,Dundee,OH,44624,(330) 359-2787,http://www.evergreenparkrvresort.com/,https://maps.google.com/?cid=4627649043229792310,,,
Lake Wapusun RV Resort,hotel,"10787 Molter Rd, Shreve, OH 44676, USA",40.7120054,-82.1171665,Shreve,OH,44676,(330) 496-2355,http://www.lakewapusun.com/,https://maps.google.com/?cid=1798558208390706286,,,
The Bertram Inn at Glenmoor,hotel,"4191 Glenmoor Rd NW, Canton, OH 44718, USA",40.8428442,-81.4676769,Canton,OH,44718,(330) 966-3600,https://res.windsurfercrs.com/ibe/index.aspx?propertyID=16967&nono=1,https://maps.google.com/?cid=1357472518344297602,,,
Berlin Heritage Inn,hotel,"4703 OH-39, Berlin, OH 44610, USA",40.5598317,-81.7910186,Berlin,OH,44610,(330) 893-6600,https://berlinheritageinn.com/?utm_source=google&utm_medium=organic&utm_campaign=googlemybusiness,https://maps.google.com/?cid=12969213210929368057,,,
Holiday Inn Express & Suites Medina by IHG,hotel,"5185 Gateway Dr, Medina, OH 44256, USA",41.1334882,-81.7887765,Medina,OH,44256,(330) 722-6006,https://www.ihg.com/holidayinnexpress/hotels/us/en/medina/mdioh/hoteldetail?cm_mmc=GoogleMaps-_-EX-_-US-_-MDIOH,https://maps.google.com/?cid=16579725070525502346,,,
The Mount Vernon Grand Hotel,hotel,"12 Public Square, Mt Vernon, OH 43050, USA",40.3930815,-82.48515809999999,Mount Vernon,OH,43050,(844) 700-1717,http://mountvernongrand.com/,https://maps.google.com/?cid=15578465775673919688,,,
Lodging On the Square,hotel,"4877 W Main St, Berlin, OH 44610, USA",40.5619804,-81.79764569999999,Berlin,OH,44610,(330) 893-6600,http://www.berlinheritageinn.com/,https://maps.google.com/?cid=10589170850597584308,,,
Surrey inn (New Look),hotel,"1065 Claremont Ave, Ashland, OH 44805, USA",40.8586651,-82.3273284,Ashland,OH,44805,,https://www.surreyinnashlandoh.com/,https://maps.google.com/?cid=11401567354558936140,,,
Barnes Preserve,tourist_attraction,"3396 Sylvan Rd, Wooster, OH 44691, USA",40.7780911,-81.8972332,Wooster,OH,44691,,https://www.waynecountyparkdistrict.org/barnes-preserve/,https://maps.google.com/?cid=7113610527275908165,,,
Christmas Run Park,tourist_attraction,"Park Ave, Wooster, OH 44691, USA",40.8066111,-81.94523629999999,Wooster,OH,44691,(330) 263-5207,http://www.woosteroh.com/,https://maps.google.com/?cid=8275576019920518224,,,
Freedlander Park,tourist_attraction,"400 Hillside Dr, Wooster, OH 44691, USA",40.83841230000001,-81.9356274,Wooster,OH,44691,(330) 263-5200,http://www.woosteroh.com/living-here/parks/freedlander-park,https://maps.google.com/?cid=17093233375448751621,,,
Schellin Park,tourist_attraction,"427 Maple St, Wooster, OH 44691, USA",40.7945824,-81.9339215,Wooster,OH,44691,(330) 263-5275,http://www.woosteroh.com/living-here/parks/schellin-park,https://maps.google.com/?cid=627297683719324580,,,
Kidz Towne,tourist_attraction,"2918 Cleveland Rd, Wooster, OH 44691, USA",40.8352827,-81.9298984,Wooster,OH,44691,(330) 988-9035,https://www.kidztowne.com/,https://maps.google.com/?cid=1215326356037306712,,,
Secrest Arboretum,tourist_attraction,"2122 Williams Rd, Wooster, OH 44691, USA",40.7829842,-81.9172033,Wooster,OH,44691,(330) 263-3761,https://secrest.osu.edu/home,https://maps.google.com/?cid=6298059560822788673,,,
Funk Bottoms Wildlife Area,tourist_attraction,"10666 Blachleyville Rd, Wooster, OH 44691, USA",40.7567835,-82.1090013,Wooster,OH,44691,(330) 644-2293,https://ohiodnr.gov/go-and-do/plan-a-visit/find-a-property/funk-bottoms-wildlife-area,https://maps.google.com/?cid=6050746981784789924,,,
College of Wooster Art Museum,tourist_attraction,"1220 Beall Ave, Wooster, OH 44691, USA",40.811905,-81.93628199999999,Wooster,OH,44691,(330) 263-2495,https://wooster.edu/museum/,https://maps.google.com/?cid=8301513787577877456,,,
Wayne County Historical Society of Ohio,tourist_attraction,"546 E Bowman St, Wooster, OH 44691, USA",40.8055572,-81.9321975,Wooster,OH,44691,(330) 264-8856,http://waynehistoricalohio.org/,https://maps.google.com/?cid=15853200362775083204,,,
Wayne County Convention & Visitors Bureau,tourist_attraction,"428 W Liberty St, Wooster, OH 44691, USA",40.7971184,-81.94670479999999,Wooster,OH,44691,(330) 264-1800,http://www.wccvb.com/,https://maps.google.com/?cid=9881926615550510572,,,
Johnson Woods State Nature Preserve,tourist_attraction,"13240 Fox Lake Rd, Marshallville, OH 44645, USA",40.8892529,-81.7443979,Marshallville,OH,44645,,https://ohiodnr.gov/wps/portal/gov/odnr/go-and-do/plan-a-visit/find-a-property/johnson-woods-state-nature-preserve,https://maps.google.com/?cid=18291864613309468530,,,
Wayne County Park District,tourist_attraction,"3396 Sylvan Rd, Wooster, OH 44691, USA",40.7781131,-81.89715489999999,Wooster,OH,44691,(330) 465-7882,https://www.waynecountyparkdistrict.org/contact,https://maps.google.com/?cid=4787322645295848516,,,
Brown's Lake Bog Preserve,tourist_attraction,"Brown Rd, Shreve, OH 44676, USA",40.68297279999999,-82.0675693,Shreve,OH,44676,,https://www.nature.org/en-us/get-involved/how-to-help/places-we-protect/browns-lake-bog-preserve/?en_txn1=bl.ch_oh.eg.x.g,https://maps.google.com/?cid=16541765615385053136,,,
JAFB Wooster Brewery,tourist_attraction,"120 Beall Ave, Wooster, OH 44691, USA",40.79949999999999,-81.9347973,Wooster,OH,44691,(330) 601-1827,https://www.jafbbeer.com/,https://maps.google.com/?cid=15202915378688447997,,,
The Wilderness Center,tourist_attraction,"9877 Alabama Ave SW, Wilmot, OH 44689, USA",40.67205299999999,-81.64200199999999,Wilmot,OH,44689,(330) 359-5235,https://www.wildernesscenter.org/,https://maps.google.com/?cid=8531908655828323035,,,
Ramseyer Farms,tourist_attraction,"4000 Ramseyer Ln, Wooster, OH 44691, USA",40.84404409999999,-81.89049039999999,Wooster,OH,44691,(330) 264-0264,http://www.ramseyerfarms.com/,https://maps.google.com/?cid=7238219407041144296,,,
Milltown Mall Shopping Center,shopping_mall,"3937 Burbank Rd, Wooster, OH 44691, USA",40.84797149999999,-81.9432125,Wooster,OH,44691,,,https://maps.google.com/?cid=803161375469323455,,,
Liberty Street Commons,shopping_mall,"Liberty Street Commons, 146 E Liberty St, Wooster, OH 44691, USA",40.7985692,-81.93874149999999,Wooster,OH,44691,(330) 725-6767,https://www.roseplaces.com/properties/wooster-downtown-arcade-storefronts-and-offices-liberty-street-marketplace,https://maps.google.com/?cid=362775558606744395,,,
Portage Square Shopping Center,shopping_mall,"Wooster, OH 44691, USA",40.8273895,-81.9128964,Wooster,OH,44691,,,https://maps.google.com/?cid=3862297190699714689,,,
Wayne Towne Plaza,shopping_mall,"3883 Burbank Rd, Wooster, OH 44691, USA",40.8480727,-81.9433699,Wooster,OH,44691,(330) 345-7493,,https://maps.google.com/?cid=928776306154139330,,,
Nichols Shopping Center,shopping_mall,"Nichols Shopping Center, 3541 Lincoln Way E, Wooster, OH 44691, USA",40.7948538,-81.8972019,Wooster,OH,44691,,,https://maps.google.com/?cid=8969515664068925663,,,
Wooster Crossing,shopping_mall,"3786 Burbank Rd, Wooster, OH 44691, USA",40.8443014,-81.94619,Wooster,OH,44691,,http://www.chaseprop.com/properties/wooster-crossing/,https://maps.google.com/?cid=11776455914816688173,,,
Wadsworth Crossings,shopping_mall,"1183 Williams Reserve Blvd, Wadsworth, OH 44281, USA",41.0405422,-81.6928259,Wadsworth,OH,44281,,,https://maps.google.com/?cid=10757827305347362010,,,
Rittman Shopping Center,shopping_mall,"226 N Main St, Rittman, OH 44270, USA",40.9792989,-81.7801362,Rittman,OH,44270,,,https://maps.google.com/?cid=17620826206236372719,,,
Summit Mall,shopping_mall,"3265 W Market St, Fairlawn, OH 44333, USA",41.133943,-81.6170132,Fairlawn,OH,44333,(330) 867-1555,https://www.simon.com/mall/summit-mall,https://maps.google.com/?cid=11716651014149023104,,,
Aurora Farms Premium Outlets,shopping_mall,"549 S Chillicothe Rd, Aurora, OH 44202, USA",41.301725,-81.3431109,Aurora,OH,44202,(330) 562-2000,https://www.premiumoutlets.com/outlet/aurora-farms,https://maps.google.com/?cid=8854661629347666925,,,
Magic City Plaza,shopping_mall,"141 Wooster Road North, Barberton, OH 44203, USA",41.01548200000001,-81.6044561,Barberton,OH,44203,(330) 253-6958,http://www.kmart.com/,https://maps.google.com/?cid=7819751996714078561,,,
Everything Surplus,shopping_mall,"1981 Portage Rd, Wooster, OH 44691, USA",40.8274751,-81.91087309999999,Wooster,OH,44691,(330) 264-8776,,https://maps.google.com/?cid=6322415163128073432,,,
SiMiMart,shopping_mall,"2022 Great Trails Dr, Wooster, OH 44691, USA",40.7927873,-81.90843939999999,Wooster,OH,44691,(216) 282-0914,https://simimart.com/,https://maps.google.com/?cid=9622437773407110321,,,
College of Wooster Art Museum,museum,"1220 Beall Ave, Wooster, OH 44691, USA",40.811905,-81.93628199999999,Wooster,OH,44691,(330) 263-2495,https://wooster.edu/museum/,https://maps.google.com/?cid=8301513787577877456,,,
Primrose Mansion,museum,"Orrville, OH 44667, USA",40.8517913,-81.7930706,Orrville,OH,44667,(330) 690-7949,,https://maps.google.com/?cid=17164741950044376424,,,
Buckeye Agriculture Museum & Education Center,museum,"Wooster, OH 44691, USA",40.7994995,-81.9515914,Wooster,OH,44691,(330) 317-9277,http://buckeyeagriculturalmuseum.com/,https://maps.google.com/?cid=4379956148669426910,,,
Wayne County Historical Society of Ohio,museum,"546 E Bowman St, Wooster, OH 44691, USA",40.8055572,-81.9321975,Wooster,OH,44691,(330) 264-8856,http://waynehistoricalohio.org/,https://maps.google.com/?cid=15853200362775083204,,,
Victorian House Museum,museum,"484 Wooster Rd, Millersburg, OH 44654, USA",40.5593459,-81.91870999999999,Millersburg,OH,44654,(330) 674-0022,https://www.holmeshistory.com/,https://maps.google.com/?cid=12928716627082886641,,,
Long Military Museum,museum,"334 E South St, Wooster, OH 44691, USA",40.7981235,-81.9354512,Wooster,OH,44691,(330) 201-4333,,https://maps.google.com/?cid=14495674535589833479,,,
Sonnenberg Village,museum,"13497 Hackett Rd, Apple Creek, OH 44606, USA",40.75527119999999,-81.74019299999999,Apple Creek,OH,44606,(330) 857-9111,https://www.kidronhistoricalsociety.org/sonnenberg-village,https://maps.google.com/?cid=7053998943996110514,,,
Ebert Art Center,museum,"1220 Beall Ave, Wooster, OH 44691, USA",40.8118528,-81.9362098,Wooster,OH,44691,,,https://maps.google.com/?cid=17015525000797418866,,,
The Cleo Redd Fisher Museum,museum,"203 E Main St, Loudonville, OH 44842, USA",40.63584009999999,-82.2316338,Loudonville,OH,44842,(419) 994-4050,http://www.crfmuseum.com/,https://maps.google.com/?cid=15519277401202430507,,,
Northern Ohio Railway Museum,museum,"5515 Buffham Rd, Seville, OH 44273, USA",41.04538139999999,-81.8882812,Seville,OH,44273,(330) 769-5501,http://www.trainweb.org/norm/,https://maps.google.com/?cid=11714197808138370574,,,
Orrville Railroad Heritage Society,museum,"145 Depot St, Orrville, OH 44667, USA",40.8398078,-81.76763249999999,Orrville,OH,44667,(330) 683-2426,https://orrvillerailroad.com/,https://maps.google.com/?cid=12209580156888316601,,,
Rittman Historical Society,museum,"Rittman, OH 44270, USA",40.98273400000001,-81.77402599999999,Rittman,OH,44270,(330) 903-0332,,https://maps.google.com/?cid=6688000410759536937,,,
Moreland Community Historical Society,museum,"7135 Millersburg Rd, Wooster, OH 44691, USA",40.7123505,-81.9453518,Wooster,OH,44691,,https://morelandhistoricalsociety.org/,https://maps.google.com/?cid=13931029573213306515,,,
Holmes County Open Air Art Museum,museum,"6920 Co Rd 203, Millersburg, OH 44654, USA",40.5740117,-81.8734296,Millersburg,OH,44654,(330) 674-0011,https://www.innathoneyrun.com/open-air-art-museum/,https://maps.google.com/?cid=62570609692346005,,,
ORHS Rail Yard,museum,"2174 S Crown Hill Rd, Orrville, OH 44667, USA",40.8280469,-81.78474399999999,Orrville,OH,44667,(330) 683-2426,https://orrvillerailroad.com/,https://maps.google.com/?cid=6142900904788945410,,,
Clayton Bailey's World of Wonders AKRON,museum,"225 S Main St, Akron, OH 44308, USA",41.0789961,-81.5200614,Akron,OH,44308,(330) 800-0342,https://claytonbailey.org/,https://maps.google.com/?cid=14742209049300835938,,,
The Little Wiz Fire Museum,museum,"326 E Smith Rd, Medina, OH 44256, USA",41.1360111,-81.85943189999999,Medina,OH,44256,(330) 419-0200,http://thelittlewiz.com/,https://maps.google.com/?cid=4774415060722521805,,,
Massillon Museum,museum,"121 Lincoln Way E, Massillon, OH 44646, USA",40.7966667,-81.52138889999999,Massillon,OH,44646,(330) 833-4061,http://www.massillonmuseum.org/,https://maps.google.com/?cid=11556537206725846233,,,
Kidz Towne,museum,"2918 Cleveland Rd, Wooster, OH 44691, USA",40.8352827,-81.9298984,Wooster,OH,44691,(330) 988-9035,https://www.kidztowne.com/,https://maps.google.com/?cid=1215326356037306712,,,
Ernest Warther Museum & Gardens,museum,"331 Karl Ave, Dover, OH 44622, USA",40.5256342,-81.48788809999999,Dover,OH,44622,(330) 505-6003,http://www.thewarthermuseum.com/,https://maps.google.com/?cid=11013947111117563026,,,
Wayne Center for the Arts,museum,"237 S Walnut St, Wooster, OH 44691, USA",40.7957761,-81.9415973,Wooster,OH,44691,(330) 264-2787,https://wayneartscenter.org/,https://maps.google.com/?cid=2980921800126674157,,,
Behalt - Amish Mennonite Heritage Center,museum,"5798 Co Rd 77, Berlin, OH 44610, USA",40.5677656,-81.7804925,Berlin,OH,44610,(330) 893-3192,https://behalt.com/,https://maps.google.com/?cid=8440985313469589876,,,
Hale Farm & Village,museum,"2686 Oak Hill Rd, Akron, OH 44333, USA",41.1927749,-81.5940512,Akron,OH,44333,(330) 666-3711,https://www.wrhs.org/plan-visit/places-to-visit/hale-farm-village,https://maps.google.com/?cid=11705911857166389125,,,
Canal Fulton Heritage Society,museum,"116 Canal St S #1, Canal Fulton, OH 44614, USA",40.8906126,-81.5960966,Canal Fulton,OH,44614,(330) 854-3808,https://cfheritage.org/,https://maps.google.com/?cid=15477836131823270548,,,
Bath Township Museum,museum,"1241 N Cleveland Massillon Rd, Akron, OH 44333, USA",41.16915789999999,-81.6364511,Akron,OH,44333,(330) 666-4007,https://www.bathtownship.org/Community%20Links/Bath%20Township%20Museum%20web%202.htm,https://maps.google.com/?cid=1338008206427280833,,,
Erb's Coleman Museum,museum,"149 Seldenright Rd SW, Sugarcreek, OH 44681, USA",40.4820166,-81.66414940000001,Sugarcreek,OH,44681,(330) 763-1549,https://visitsugarcreek.com/visit-erb-coleman-museum.html,https://maps.google.com/?cid=5589266445728856989,,,
Seville Historical Society,museum,"70 W Main St, Seville, OH 44273, USA",41.01037540000001,-81.8665872,Seville,OH,44273,(330) 322-6825,https://www.facebook.com/sevillehistoricalsociety/,https://maps.google.com/?cid=7973989301038611637,,,
Old Canal Days Heritage House Museum,museum,"103 Tuscarawas St NW, Canal Fulton, OH 44614, USA",40.8889475,-81.5984431,Canal Fulton,OH,44614,(330) 854-3808,http://cfheritage.org/,https://maps.google.com/?cid=11864778627854121256,,,
Smithville Community Historical Society,museum,"381 E Main St, Smithville, OH 44677, USA",40.8650826,-81.85505429999999,Smithville,OH,44677,(330) 669-9308,https://sohchs.org/,https://maps.google.com/?cid=5915416690232012445,,,
Buckeye Imagination Museum,museum,"175 W 3rd St, Mansfield, OH 44903, USA",40.7591549,-82.5219273,Mansfield,OH,44903,(419) 522-2332,https://buckeyeimaginationmuseum.org/,https://maps.google.com/?cid=13921819218402865031,,,
Orrville Scout Cabin,museum,"821 N Elm St, Orrville, OH 44667, USA",40.84775459999999,-81.7732645,Orrville,OH,44667,,,https://maps.google.com/?cid=12335095742683000356,,,
Stan Hywet Hall & Gardens,museum,"714 N Portage Path, Akron, OH 44303, USA",41.1164046,-81.54885809999999,Akron,OH,44303,(330) 836-5533,https://stanhywet.org/,https://maps.google.com/?cid=15233396307443877454,,,
Kidron Community Historical Society,museum,"13153 Emerson Rd, Kidron, OH 44636, USA",40.7410102,-81.74581289999999,Kidron,OH,44636,(330) 857-9111,http://www.kidronhistoricalsociety.org/,https://maps.google.com/?cid=7169396183714575350,,,
Zimmerman Bury Octagon House,museum,"10095 Wadsworth Rd, Marshallville, OH 44645, USA",40.92263639999999,-81.76287669999999,Marshallville,OH,44645,(330) 855-4251,http://www.zimmermanburyoctagonhouse.org/,https://maps.google.com/?cid=5468682250150322376,,,
Brewster Sugar Creek Twp. Historical society & museum,museum,"45 south Wabash Ave S, Brewster, OH 44613, USA",40.7129116,-81.5981535,Brewster,OH,44613,(330) 767-0045,https://www.brewster-sugarcreektwp-hist.org/,https://maps.google.com/?cid=6582950788326236690,,,
German Culture Museum,museum,"4877 Olde Pump St, Walnut Creek, OH 44687, USA",40.540898,-81.72222769999999,Walnut Creek,OH,44687,(330) 763-1390,http://germanculturemuseum.org/,https://maps.google.com/?cid=2800231408399226908,,,
Age of Steam Roundhouse,museum,"213 Smokey Lane Rd SW, Sugarcreek, OH 44681, USA",40.48010659999999,-81.6648506,Sugarcreek,OH,44681,(330) 852-4676,http://www.ageofsteamroundhouse.org/,https://maps.google.com/?cid=14075837373684671742,,,
"Ashland County Historical Society, LLC",museum,"420 Center St, Ashland, OH 44805, USA",40.8656906,-82.3140055,Ashland,OH,44805,(419) 289-3111,http://www.ashlandhistory.org/,https://maps.google.com/?cid=7025093063561746652,,,
Smith Orr Homestead,museum,"365 W Market St, Orrville, OH 44667, USA",40.841624,-81.767893,Orrville,OH,44667,(330) 930-0113,https://www.facebook.com/pages/Smith-Orr-Homestead/113420272024292,https://maps.google.com/?cid=6643748839641517554,,,
Simon Perkins Stone Mansion,museum,"465 S Portage Path, Akron, OH 44320, USA",41.08532749999999,-81.54226899999999,Akron,OH,44320,(330) 535-1120,http://summithistory.org/,https://maps.google.com/?cid=8290846685280140261,,,
Alpine Hills Historical Museum and Information Center,museum,"106 W Main St, Sugarcreek, OH 44681, USA",40.503017,-81.641373,Sugarcreek,OH,44681,(330) 852-4113,https://alpinehillssugarcreek.com/,https://maps.google.com/?cid=18347165011761052796,,,
McDowell-Phillips House Museum,museum,"205 S Prospect St, Medina, OH 44256, USA",41.1380239,-81.87139250000001,Medina,OH,44256,(330) 722-1341,https://www.medinacountyhistoricalsociety.com/,https://maps.google.com/?cid=3610063663781997687,,,
American Legion,museum,"220 E Sunset Dr, Rittman, OH 44270, USA",40.9810141,-81.774558,Rittman,OH,44270,,,https://maps.google.com/?cid=583141788553198491,,,
Creation Education Museum,museum,"2080 S Cleveland Massillon Rd Ste B, Akron, OH 44321, USA",41.0814906,-81.6433637,Akron,OH,44321,(330) 665-3466,https://creationeducationmuseum.org/,https://maps.google.com/?cid=6825366612125596805,,,
County Line Historical Society,museum,"PO Box 614, Shreve, OH 44676, USA",40.683128,-82.02245909999999,Shreve,OH,44676,(330) 567-2501,http://countylinehistorical.com/,https://maps.google.com/?cid=16477843776433285092,,,
Lodi Railroad Museum,museum,"204 N Railroad St, Lodi, OH 44254, USA",41.0306705,-82.0129207,Lodi,OH,44254,(330) 241-3486,http://www.lodirailroadmuseum.org/,https://maps.google.com/?cid=14865416498241543396,,,
Mathews House Museum,museum,"123 High St NW, Navarre, OH 44662, USA",40.7216958,-81.52804950000001,Navarre,OH,44662,(330) 879-5938,,https://maps.google.com/?cid=7424670959573500274,,,
The College of Wooster,museum,"1189 Beall Ave, Wooster, OH 44691, USA",40.811716,-81.93079159999999,Wooster,OH,44691,(330) 263-2000,https://www.wooster.edu/,https://maps.google.com/?cid=10493135857456484292,,,
Medina County Historical Society,museum,"P. O. Box 306, 206 N Elmwood Ave, Medina, OH 44256, USA",41.1408356,-81.8656587,Medina,OH,44256,(330) 722-1341,https://www.medinacountyhistoricalsociety.com/,https://maps.google.com/?cid=8114044516656900219,,,
McKinley Presidential Library & Museum,museum,"800 Mc Kinley Monument Dr NW, Canton, OH 44708, USA",40.8062388,-81.3931279,Canton,OH,44708,(330) 455-7043,https://mckinleymuseum.org/,https://maps.google.com/?cid=2794489794840173901,,,
Akron Fossils & Science Center,museum,"2080 S Cleveland Massillon Rd, Copley, OH 44321, USA",41.0814432,-81.6433972,Copley,OH,44321,(330) 665-3466,http://www.akronfossils.org/,https://maps.google.com/?cid=4350092674675444860,,,
Schrock's Heritage Village,museum,"4363 OH-39, Millersburg, OH 44654, USA",40.5512245,-81.7789478,Millersburg,OH,44654,(330) 893-3051,http://www.schrocksvillage.com/,https://maps.google.com/?cid=11064568453532841338,,,
Millersburg Glass Museum,museum,"414 N Washington St, Millersburg, OH 44654, USA",40.5589805,-81.9184611,Millersburg,OH,44654,(330) 674-0022,https://www.holmeshistory.com/museum#1024421217,https://maps.google.com/?cid=344337901445392979,,,
Akron Children's Museum,museum,"Parking: 51 W. State Street Mailing Address:, 216 S Main St, Akron, OH 44308, USA",41.0797658,-81.5217534,Akron,OH,44308,(330) 396-6103,http://akronkids.org/,https://maps.google.com/?cid=18197940924042391195,,,
North Central Ohio Industrial Museum,museum,"100 Reformatory Rd, Mansfield, OH 44905, USA",40.78436779999999,-82.5020265,Mansfield,OH,44905,(419) 528-8107,http://www.ncoim.org/,https://maps.google.com/?cid=6662250028748596583,,,
Medina Town Hall and Engine House Museum,museum,"50 Public Square, Medina, OH 44256, USA",41.13785379999999,-81.8633047,Medina,OH,44256,(330) 952-0910,https://www.visitmedinacounty.com/venue/medina-town-hall-and-engine-house-museum/,https://maps.google.com/?cid=14923695636135642926,,,
Smithville Community Historical Society,museum,"110 E Main St, Smithville, OH 44677, USA",40.8635929,-81.8596893,Smithville,OH,44677,(330) 669-9308,https://sohchs.org/,https://maps.google.com/?cid=15216550184046042967,,,
Fort Laurens Museum,museum,"11067 Fort Laurens Rd NW, Bolivar, OH 44612, USA",40.63969590000001,-81.45517939999999,Bolivar,OH,44612,(330) 874-2059,https://www.fortlaurensmuseum.org/,https://maps.google.com/?cid=4616370517984822691,,,
David Warther Carvings & Gift Shop,museum,"1775 OH-39, Sugarcreek, OH 44681, USA",40.52011940000001,-81.686759,Sugarcreek,OH,44681,(330) 852-6096,http://www.warther.org/,https://maps.google.com/?cid=17351040032490632837,,,
Orrville Historical Society,museum,"365 W Market St, Orrville, OH 44667, USA",40.8419733,-81.76806359999999,Orrville,OH,44667,,,https://maps.google.com/?cid=8884815798410152849,,,
Cinemark Wooster Movies 10,movie_theater,"4108 Burbank Rd, Wooster, OH 44691, USA",40.8485571,-81.948148,Wooster,OH,44691,(330) 345-2610,https://www.cinemark.com/theatres/oh-wooster/cinemark-wooster-movies-10?utm_medium=organic&utm_source=gmb&utm_campaign=local_listing_theater&utm_content=GMB_listing&y_source=1_MTc0OTMxOTEtNzE1LWxvY2F0aW9uLndlYnNpdGU%3D,https://maps.google.com/?cid=16020930776804816095,,,
Lyric Theater of Wooster,movie_theater,"116 E South St, Wooster, OH 44691, USA",40.7972143,-81.9392026,Wooster,OH,44691,(330) 804-0365,https://www.lyricwooster.org/,https://maps.google.com/?cid=8641298161748609669,,,
Wayne County Tax Map Office,point_of_interest,"428 W Liberty St, Wooster, OH 44691, USA",40.7970787,-81.9468881,Wooster,OH,44691,(330) 287-5495,https://wayne-county-engineer.com/tax-map/,https://maps.google.com/?cid=6721852533068526857,,,
Community Action Wayne/Medina,point_of_interest,"905 Pittsburgh Ave, Wooster, OH 44691, USA",40.7976228,-81.9273098,Wooster,OH,44691,(330) 264-8677,http://www.cawm.org/,https://maps.google.com/?cid=2732941636340451612,,,
Wayne County Fairgrounds,point_of_interest,"199 Vanover St, Wooster, OH 44691, USA",40.797116,-81.95074,Wooster,OH,44691,(330) 262-8001,https://www.waynecountyfairohio.com/,https://maps.google.com/?cid=2757297874744203352,,,
Wayne County Fair Event Center,point_of_interest,"199 Vanover St, Wooster, OH 44691, USA",40.7959634,-81.9498151,Wooster,OH,44691,(330) 262-8001,https://waynecountyfairohio.com/event-center-facilities/,https://maps.google.com/?cid=12742766421818876298,,,
Wayne County Marriage License,point_of_interest,"107 W Liberty St, Wooster, OH 44691, USA",40.7984884,-81.94028999999999,Wooster,OH,44691,(330) 287-5575,https://www.wayneprobateandjuvenile.org/probate-other-case-types/marriage-licenses,https://maps.google.com/?cid=6474911876519089014,,,
Wayne County Clerk of Courts,point_of_interest,"107 W Liberty St, Wooster, OH 44691, USA",40.79828210000001,-81.94015739999999,Wooster,OH,44691,(330) 287-5590,https://www.wayneclerkofcourts.org/,https://maps.google.com/?cid=5002145398812669985,,,
Wayne County Republican,point_of_interest,"5200 Cleveland Rd Unit B, Wooster, OH 44691, USA",40.8622519,-81.9242701,Wooster,OH,44691,(330) 804-0019,http://www.waynecountyrepublican.com/,https://maps.google.com/?cid=3119875162474776674,,,
Wayne County Public Library - Operations Center,point_of_interest,"304 N Market St, Wooster, OH 44691, USA",40.8007166,-81.94110049999999,Wooster,OH,44691,(330) 262-0916,https://www.wcpl.info/,https://maps.google.com/?cid=5500027982500050430,,,
Wayne County Care Center,point_of_interest,"876 S Geyers Chapel Rd, Wooster, OH 44691, USA",40.785831,-81.8956883,Wooster,OH,44691,(330) 262-1786,https://www.waynecountycarecenter.com/,https://maps.google.com/?cid=15773521280946302467,,,
Wayne County Building Inspect,point_of_interest,"428 W Liberty St # 3, Wooster, OH 44691, USA",40.7972988,-81.9465681,Wooster,OH,44691,(330) 287-5525,http://www.wayneohio.org/,https://maps.google.com/?cid=607573475120332827,,,
Wayne County Title Office - Wooster,point_of_interest,"200 Vanover St, Wooster, OH 44691, USA",40.796798,-81.9480947,Wooster,OH,44691,(330) 287-5471,https://publicsafety.ohio.gov/local-office/wayne-title-office-wooster,https://maps.google.com/?cid=4716026320375872377,,,
Barnes Preserve,point_of_interest,"3396 Sylvan Rd, Wooster, OH 44691, USA",40.7780911,-81.8972332,Wooster,OH,44691,,https://www.waynecountyparkdistrict.org/barnes-preserve/,https://maps.google.com/?cid=7113610527275908165,,,
Wayne County Park District,point_of_interest,"3396 Sylvan Rd, Wooster, OH 44691, USA",40.7781131,-81.89715489999999,Wooster,OH,44691,(330) 465-7882,https://www.waynecountyparkdistrict.org/contact,https://maps.google.com/?cid=4787322645295848516,,,
Wayne Towne Plaza,point_of_interest,"3883 Burbank Rd, Wooster, OH 44691, USA",40.8480727,-81.9433699,Wooster,OH,44691,(330) 345-7493,,https://maps.google.com/?cid=928776306154139330,,,
Wayne County Engineering,point_of_interest,"3151 W Old Lincoln Way, Wooster, OH 44691, USA",40.80297760000001,-81.99989450000001,Wooster,OH,44691,(330) 287-5500,http://www.wayne-county-engineer.com/,https://maps.google.com/?cid=15201981459829855520,,,
Habitat for Humanity in Wayne County ReStore,point_of_interest,"2700 Akron Rd, Wooster, OH 44691, USA",40.8305458,-81.9091863,Wooster,OH,44691,(330) 264-4999,https://www.waynehabitat.com/,https://maps.google.com/?cid=5723198971997085875,,,
YMCA of Wayne County,point_of_interest,"680 Woodland Ave, Wooster, OH 44691, USA",40.806235,-81.94930900000001,Wooster,OH,44691,(330) 264-3131,http://www.ymcawayne.org/,https://maps.google.com/?cid=12266337495707310033,,,
United Way of Wayne and Holmes Counties,point_of_interest,"215 S Walnut St, Wooster, OH 44691, USA",40.79629010000001,-81.94144759999999,Wooster,OH,44691,(330) 263-6363,https://www.uwwh.org/,https://maps.google.com/?cid=4033278587828374552,,,
Wayne County Recorder,point_of_interest,"428 W Liberty St, Wooster, OH 44691, USA",40.7971107,-81.9467047,Wooster,OH,44691,(330) 287-5460,,https://maps.google.com/?cid=10485664649471411710,,,
Meals On Wheels-Stark & Wayne,point_of_interest,"241 S Bever St, Wooster, OH 44691, USA",40.79661040000001,-81.9367292,Wooster,OH,44691,,,https://maps.google.com/?cid=9624560173839206501,,,
NewPointe Community Church - Wooster,point_of_interest,"1741 Oak Hill Rd, Wooster, OH 44691, USA",40.8207197,-81.9527556,Wooster,OH,44691,(330) 234-5131,https://newpointe.org/locations,https://maps.google.com/?cid=14251841926897461490,,,
Oak Hill Park,point_of_interest,"Donald & Alice Noble Trail, Wooster, OH 44691, USA",40.83568770000001,-81.95606819999999,Wooster,OH,44691,(330) 263-5203,https://www.woosteroh.com/parks/oak-hill-park,https://maps.google.com/?cid=15052999346407240552,,,
Community Action Wayne/Medina,point_of_interest,"88 N Main St, Rittman, OH 44270, USA",40.9752084,-81.7811795,Rittman,OH,44270,(330) 927-1871,https://www.cawm.org/,https://maps.google.com/?cid=1259190994228211986,,,
Wayne County Probation Department,point_of_interest,"215 N Grant St, Wooster, OH 44691, USA",40.7991569,-81.9428677,Wooster,OH,44691,(330) 287-5672,https://www.waynemunicipalcourt.org/adult-probation/,https://maps.google.com/?cid=2248371768198855314,,,
Wayne County Job and Family Services,point_of_interest,"356 W North St, Wooster, OH 44691, USA",40.7984214,-81.94497860000001,Wooster,OH,44691,(330) 287-5800,https://www.waynecountydjfs.com/,https://maps.google.com/?cid=2134530711172689576,,,
Wayne County Community Foundation,point_of_interest,"517 N Market St, Wooster, OH 44691, USA",40.80329400000001,-81.9410207,Wooster,OH,44691,(330) 262-3877,https://www.waynecountycommunityfoundation.org/,https://maps.google.com/?cid=3545287827179441153,,,
Wayne County Convention & Visitors Bureau,point_of_interest,"428 W Liberty St, Wooster, OH 44691, USA",40.7971184,-81.94670479999999,Wooster,OH,44691,(330) 264-1800,http://www.wccvb.com/,https://maps.google.com/?cid=9881926615550510572,,,
Wooster Memorial Park (formerly Spangler),point_of_interest,"5197 Silver Rd, Wooster, OH 44691, USA",40.8110073,-82.02304439999999,Wooster,OH,44691,,http://www.friendsofwmp.com/,https://maps.google.com/?cid=9264370593413186044,,,
Wayne County Health Department,point_of_interest,"244 W South St, Wooster, OH 44691, USA",40.7962621,-81.9424422,Wooster,OH,44691,(330) 264-9590,http://wayne-health.org/,https://maps.google.com/?cid=6394504676962746847,,,
Wayne County Children's Services,point_of_interest,"2534 Burbank Rd, Wooster, OH 44691, USA",40.8305099,-81.9396615,Wooster,OH,44691,(330) 345-5340,https://www.waynecsb.org/,https://maps.google.com/?cid=5037549830247015966,,,
Ohio State University Extension-Wayne County,point_of_interest,"428 W Liberty St #12, Wooster, OH 44691, USA",40.7970787,-81.9468881,Wooster,OH,44691,(330) 264-8722,https://extension.osu.edu/wayne-county-office,https://maps.google.com/?cid=6654702372866893339,,,
Wayne County Home Arrest Department,point_of_interest,"215 N Grant St, Wooster, OH 44691, USA",40.7992815,-81.9430046,Wooster,OH,44691,(330) 345-3624,https://www.waynemunicipalcourt.org/home-arrest/,https://maps.google.com/?cid=6445243548407005786,,,
Wayne Economic Development Council,point_of_interest,"542 E Liberty St, Wooster, OH 44691, USA",40.7995665,-81.9332021,Wooster,OH,44691,(330) 264-2411,http://waynecountyedc.com/,https://maps.google.com/?cid=13125474966310842904,,,
Wooster Hope Center,point_of_interest,"807 Spruce St, Wooster, OH 44691, USA",40.79007489999999,-81.9406946,Wooster,OH,44691,(330) 683-2242 ext. 2,http://woosterhopecenter.org/,https://maps.google.com/?cid=16732494888357673078,,,
Wayne County Speedway,point_of_interest,"1083 N Carr Rd, Orrville, OH 44667, USA",40.81041039999999,-81.7830366,Orrville,OH,44667,(330) 465-2258,http://www.waynecountyspeedway.com/,https://maps.google.com/?cid=16735708563620144161,,,
Wayne County Commissioners,point_of_interest,"428 W Liberty St, Wooster, OH 44691, USA",40.7970787,-81.9468881,Wooster,OH,44691,(330) 287-5400,,https://maps.google.com/?cid=15421645544383910181,,,
Wayne Manor,point_of_interest,"4138 Swanson Blvd, Wooster, OH 44691, USA",40.8595988,-81.8872629,Wooster,OH,44691,(330) 345-9050,https://www.sprengerhealthcare.com/facility/wayne-manor-assisted-living/,https://maps.google.com/?cid=7720129716653978216,,,
Wayne County Outdoor Service's LLC,point_of_interest,"7726 Fox Lake Rd, Sterling, OH 44276, USA",40.8887911,-81.8338139,Sterling,OH,44276,(330) 466-2134,http://waynecountyoutdoorservicesllc.com/?utm_source=gmb&utm_medium=referral,https://maps.google.com/?cid=17241188947382033392,,,
Habitat for Humanity,point_of_interest,"2700 Akron Rd, Wooster, OH 44691, USA",40.8305458,-81.9091863,Wooster,OH,44691,(330) 263-1713,https://waynehabitat.org/who-we-are/contact.html,https://maps.google.com/?cid=17615193407113737906,,,
The Greater Wayne County Food Bank,point_of_interest,"807 Spruce St, Wooster, OH 44691, USA",40.7900486,-81.940707,Wooster,OH,44691,(330) 683-2242,,https://maps.google.com/?cid=13134000394818475450,,,
Wayne Holmes Info Referral,point_of_interest,"215 S Walnut St, Wooster, OH 44691, USA",40.79629010000001,-81.94144759999999,Wooster,OH,44691,(330) 263-6363,,https://maps.google.com/?cid=10540428300984212596,,,
Wayne County WIC Office,point_of_interest,"244 W South St, Wooster, OH 44691, USA",40.79628529999999,-81.94234139999999,Wooster,OH,44691,(330) 264-1942,https://odh.ohio.gov/wps/portal/gov/odh/know-our-programs/Women-Infants-Children/WIC-Clinics/clinic-8500,https://maps.google.com/?cid=18288086618322712955,,,
Wayne County Administration Building,point_of_interest,"428-438 W Liberty St, Wooster, OH 44691, USA",40.7973277,-81.9465667,Wooster,OH,44691,,,https://maps.google.com/?cid=3877985505423368941,,,
Wooster Memorial Park-Education Area,point_of_interest,"RX7C+6VR, Wooster, OH 44691, USA",40.8131571,-82.02786929999999,Wooster,OH,44691,(330) 234-3157,https://www.friendsofwmp.com/,https://maps.google.com/?cid=5654435607193904764,,,
Wayne County Planning Department,point_of_interest,"428 W Liberty St, Wooster, OH 44691, USA",40.7970787,-81.9468881,Wooster,OH,44691,(330) 287-5420,,https://maps.google.com/?cid=1600300245630554917,,,
Wayne Center for the Arts,point_of_interest,"237 S Walnut St, Wooster, OH 44691, USA",40.7957761,-81.9415973,Wooster,OH,44691,(330) 264-2787,https://wayneartscenter.org/,https://maps.google.com/?cid=2980921800126674157,,,
Wayne County Historical Society of Ohio,point_of_interest,"546 E Bowman St, Wooster, OH 44691, USA",40.8055572,-81.9321975,Wooster,OH,44691,(330) 264-8856,http://waynehistoricalohio.org/,https://maps.google.com/?cid=15853200362775083204,,,
Catholic Charities Wayne County,point_of_interest,"521 Beall Ave, Wooster, OH 44691, USA",40.8042496,-81.9340004,Wooster,OH,44691,(330) 262-7836,https://ccdocle.org/wayne,https://maps.google.com/?cid=1646962062570314441,,,
Wayne County Small Claims,point_of_interest,"215 N Grant St, Wooster, OH 44691, USA",40.7992815,-81.9430046,Wooster,OH,44691,(330) 287-5668,https://www.waynemunicipalcourt.org/civil-small-claims/,https://maps.google.com/?cid=16055429071579558557,,,
Wayne Metropolitan Housing Authority,point_of_interest,"345 N Market St, Wooster, OH 44691, USA",40.8016268,-81.9404814,Wooster,OH,44691,(330) 264-2727,http://www.waynemha.org/,https://maps.google.com/?cid=6633594338812670347,,,
YMCA of Wayne County,point_of_interest,"1038 Country Club Dr, Wooster, OH 44691, USA",40.8179928,-81.9581608,Wooster,OH,44691,(330) 264-7673,http://ymcawayne.org/,https://maps.google.com/?cid=9258257412860906560,,,
Wayne County Child Support,point_of_interest,"428 W Liberty St, Wooster, OH 44691, USA",40.7971397,-81.94670219999999,Wooster,OH,44691,(330) 287-5600,https://waynecountycsea.org/,https://maps.google.com/?cid=10757242687316167962,,,
Wayne Presbyterian Church,point_of_interest,"7152 Burbank Rd, Wooster, OH 44691, USA",40.88660309999999,-81.9694622,Wooster,OH,44691,(330) 345-6071,http://www.waynechurch.org/,https://maps.google.com/?cid=12182196168441935654,,,
Wayne County Farm Bureau,point_of_interest,"2030 Portage Rd Suite A, Wooster, OH 44691, USA",40.82893169999999,-81.91052959999999,Wooster,OH,44691,(330) 263-7456,https://ofbf.org/community/counties/wayne/,https://maps.google.com/?cid=18119243804654260249,,,
Salvation Army,point_of_interest,"437 S Market St, Wooster, OH 44691, USA",40.7938129,-81.93931239999999,Wooster,OH,44691,(330) 264-4704,https://easternusa.salvationarmy.org/northeast-ohio/wooster/,https://maps.google.com/?cid=11582372057760047839,,,
Wayne County Democratic Party,point_of_interest,"503 E Liberty St, Wooster, OH 44691, USA",40.79871529999999,-81.9339073,Wooster,OH,44691,(330) 264-8683,http://www.waynedemocrats.org/,https://maps.google.com/?cid=1252920566802583532,,,
Ohio Department of Transportation,point_of_interest,"1661 Geyers Chapel Rd, Wooster, OH 44691, USA",40.8185034,-81.8946859,Wooster,OH,44691,(330) 262-2821,https://www.transportation.ohio.gov/,https://maps.google.com/?cid=11838136125096722811,,,
YMCA of Orrville Ohio,point_of_interest,"1801 Smucker Rd, Orrville, OH 44667, USA",40.85990199999999,-81.787801,Orrville,OH,44667,(330) 683-2153,http://ymcawayne.org/,https://maps.google.com/?cid=7180357428924826867,,,
Wayne County Title Agency Inc.,point_of_interest,"141 E Liberty St, Wooster, OH 44691, USA",40.7982303,-81.9388235,Wooster,OH,44691,(330) 262-2916,http://www.waynecountytitle.com/,https://maps.google.com/?cid=16676112983368370561,,,
Wayne County Sheriff,point_of_interest,"201 W North St, Wooster, OH 44691, USA",40.7994218,-81.9422049,Wooster,OH,44691,(330) 287-5750,http://waynecountysheriff.com/,https://maps.google.com/?cid=16931346493792757745,,,
Wayne County Fairgrounds,establishment,"199 Vanover St, Wooster, OH 44691, USA",40.797116,-81.95074,Wooster,OH,44691,(330) 262-8001,https://www.waynecountyfairohio.com/,https://maps.google.com/?cid=2757297874744203352,,,
Wayne County Historical Society of Ohio,establishment,"546 E Bowman St, Wooster, OH 44691, USA",40.8055572,-81.9321975,Wooster,OH,44691,(330) 264-8856,http://waynehistoricalohio.org/,https://maps.google.com/?cid=15853200362775083204,,,
Wayne County Health Department,establishment,"244 W South St, Wooster, OH 44691, USA",40.7962621,-81.9424422,Wooster,OH,44691,(330) 264-9590,http://wayne-health.org/,https://maps.google.com/?cid=6394504676962746847,,,
United Way of Wayne and Holmes Counties,establishment,"215 S Walnut St, Wooster, OH 44691, USA",40.79629010000001,-81.94144759999999,Wooster,OH,44691,(330) 263-6363,https://www.uwwh.org/,https://maps.google.com/?cid=4033278587828374552,,,
Wayne County Engineering,establishment,"3151 W Old Lincoln Way, Wooster, OH 44691, USA",40.80297760000001,-81.99989450000001,Wooster,OH,44691,(330) 287-5500,http://www.wayne-county-engineer.com/,https://maps.google.com/?cid=15201981459829855520,,,
Wayne County Republican,establishment,"5200 Cleveland Rd Unit B, Wooster, OH 44691, USA",40.8622519,-81.9242701,Wooster,OH,44691,(330) 804-0019,http://www.waynecountyrepublican.com/,https://maps.google.com/?cid=3119875162474776674,,,
Wayne County Fair Event Center,establishment,"199 Vanover St, Wooster, OH 44691, USA",40.7959634,-81.9498151,Wooster,OH,44691,(330) 262-8001,https://waynecountyfairohio.com/event-center-facilities/,https://maps.google.com/?cid=12742766421818876298,,,
Wayne Metropolitan Housing Authority,establishment,"345 N Market St, Wooster, OH 44691, USA",40.8016268,-81.9404814,Wooster,OH,44691,(330) 264-2727,http://www.waynemha.org/,https://maps.google.com/?cid=6633594338812670347,,,
OhioMeansJobs - Wayne County,establishment,"356 W North St, Wooster, OH 44691, USA",40.7985528,-81.9451758,Wooster,OH,44691,(330) 264-5060,https://everybodyworks.org/wayne,https://maps.google.com/?cid=9002365918717617718,,,
Wayne County Recorder,establishment,"428 W Liberty St, Wooster, OH 44691, USA",40.7971107,-81.9467047,Wooster,OH,44691,(330) 287-5460,,https://maps.google.com/?cid=10485664649471411710,,,
Wayne County Tax Map Office,establishment,"428 W Liberty St, Wooster, OH 44691, USA",40.7970787,-81.9468881,Wooster,OH,44691,(330) 287-5495,https://wayne-county-engineer.com/tax-map/,https://maps.google.com/?cid=6721852533068526857,,,
Wayne County Home Arrest Department,establishment,"215 N Grant St, Wooster, OH 44691, USA",40.7992815,-81.9430046,Wooster,OH,44691,(330) 345-3624,https://www.waynemunicipalcourt.org/home-arrest/,https://maps.google.com/?cid=6445243548407005786,,,
Ohio State University Extension-Wayne County,establishment,"428 W Liberty St #12, Wooster, OH 44691, USA",40.7970787,-81.9468881,Wooster,OH,44691,(330) 264-8722,https://extension.osu.edu/wayne-county-office,https://maps.google.com/?cid=6654702372866893339,,,
Wayne Economic Development Council,establishment,"542 E Liberty St, Wooster, OH 44691, USA",40.7995665,-81.9332021,Wooster,OH,44691,(330) 264-2411,http://waynecountyedc.com/,https://maps.google.com/?cid=13125474966310842904,,,
Wayne County Auditor,establishment,"428 W Liberty St #1, Wooster, OH 44691, USA",40.7970787,-81.9468881,Wooster,OH,44691,(330) 287-5430,http://waynecountyauditor.org/,https://maps.google.com/?cid=12293250633758597142,,,
Wayne County Clerk of Courts,establishment,"107 W Liberty St, Wooster, OH 44691, USA",40.79828210000001,-81.94015739999999,Wooster,OH,44691,(330) 287-5590,https://www.wayneclerkofcourts.org/,https://maps.google.com/?cid=5002145398812669985,,,
Wayne County Care Center,establishment,"876 S Geyers Chapel Rd, Wooster, OH 44691, USA",40.785831,-81.8956883,Wooster,OH,44691,(330) 262-1786,https://www.waynecountycarecenter.com/,https://maps.google.com/?cid=15773521280946302467,,,
Wayne County WIC Office,establishment,"244 W South St, Wooster, OH 44691, USA",40.79628529999999,-81.94234139999999,Wooster,OH,44691,(330) 264-1942,https://odh.ohio.gov/wps/portal/gov/odh/know-our-programs/Women-Infants-Children/WIC-Clinics/clinic-8500,https://maps.google.com/?cid=18288086618322712955,,,
Wayne County Child Support,establishment,"428 W Liberty St, Wooster, OH 44691, USA",40.7971397,-81.94670219999999,Wooster,OH,44691,(330) 287-5600,https://waynecountycsea.org/,https://maps.google.com/?cid=10757242687316167962,,,
Olde Jaol Steakhouse and Tavern,establishment,"215 N Walnut St, Wooster, OH 44691, USA",40.7996597,-81.94165799999999,Wooster,OH,44691,(330) 262-3333,https://www.oldejaol.com/,https://maps.google.com/?cid=303714742310527210,,,
Wayne County Administration Building,establishment,"428-438 W Liberty St, Wooster, OH 44691, USA",40.7973277,-81.9465667,Wooster,OH,44691,,,https://maps.google.com/?cid=3877985505423368941,,,
Meals On Wheels-Stark & Wayne,establishment,"241 S Bever St, Wooster, OH 44691, USA",40.79661040000001,-81.9367292,Wooster,OH,44691,,,https://maps.google.com/?cid=9624560173839206501,,,
Wayne County Marriage License,establishment,"107 W Liberty St, Wooster, OH 44691, USA",40.7984884,-81.94028999999999,Wooster,OH,44691,(330) 287-5575,https://www.wayneprobateandjuvenile.org/probate-other-case-types/marriage-licenses,https://maps.google.com/?cid=6474911876519089014,,,
"OneEighty, Inc.",establishment,"104 Spink St, Wooster, OH 44691, USA",40.7995702,-81.9324577,Wooster,OH,44691,(330) 264-8498,http://www.one-eighty.org/,https://maps.google.com/?cid=10799089174496841915,,,
Wayne County Sheriff,establishment,"201 W North St, Wooster, OH 44691, USA",40.7994218,-81.9422049,Wooster,OH,44691,(330) 287-5750,http://waynecountysheriff.com/,https://maps.google.com/?cid=16931346493792757745,,,
Wayne County Municipal Court,establishment,"207 N Main St, Orrville, OH 44667, USA",40.84168869999999,-81.76463679999999,Orrville,OH,44667,(330) 682-4085,,https://maps.google.com/?cid=3247782632264965182,,,
Wooster Hope Center,establishment,"807 Spruce St, Wooster, OH 44691, USA",40.79007489999999,-81.9406946,Wooster,OH,44691,(330) 683-2242 ext. 2,http://woosterhopecenter.org/,https://maps.google.com/?cid=16732494888357673078,,,
Wayne County Children's Services,establishment,"2534 Burbank Rd, Wooster, OH 44691, USA",40.8305099,-81.9396615,Wooster,OH,44691,(330) 345-5340,https://www.waynecsb.org/,https://maps.google.com/?cid=5037549830247015966,,,
Wayne County Job and Family Services,establishment,"356 W North St, Wooster, OH 44691, USA",40.7984214,-81.94497860000001,Wooster,OH,44691,(330) 287-5800,https://www.waynecountydjfs.com/,https://maps.google.com/?cid=2134530711172689576,,,
Wayne Holmes Info Referral,establishment,"215 S Walnut St, Wooster, OH 44691, USA",40.79629010000001,-81.94144759999999,Wooster,OH,44691,(330) 263-6363,,https://maps.google.com/?cid=10540428300984212596,,,
Wayne County Building Inspect,establishment,"428 W Liberty St # 3, Wooster, OH 44691, USA",40.7972988,-81.9465681,Wooster,OH,44691,(330) 287-5525,http://www.wayneohio.org/,https://maps.google.com/?cid=607573475120332827,,,
Wayne County Commissioners,establishment,"428 W Liberty St, Wooster, OH 44691, USA",40.7970787,-81.9468881,Wooster,OH,44691,(330) 287-5400,,https://maps.google.com/?cid=15421645544383910181,,,
Wayne County Prosecuting Atty,establishment,"115 W Liberty St, Wooster, OH 44691, USA",40.798227,-81.94045410000001,Wooster,OH,44691,(330) 262-3030,,https://maps.google.com/?cid=3076057532905179249,,,
Wayne County Coroner,establishment,"128 E Milltown Rd, Wooster, OH 44691, USA",40.8437629,-81.93907469999999,Wooster,OH,44691,(330) 345-5891,,https://maps.google.com/?cid=12442128649721608661,,,
The Leaf Restaurant,establishment,"203 W Liberty St, Wooster, OH 44691, USA",40.79803,-81.94170539999999,Wooster,OH,44691,(330) 804-0126,http://theleaf.restaurant/,https://maps.google.com/?cid=17576269968844403992,,,
Community Action Wayne/Medina,establishment,"88 N Main St, Rittman, OH 44270, USA",40.9752084,-81.7811795,Rittman,OH,44270,(330) 927-1871,https://www.cawm.org/,https://maps.google.com/?cid=1259190994228211986,,,
Wayne County Prosecuting Atty,establishment,"215 N Grant St, Wooster, OH 44691, USA",40.7992815,-81.9430046,Wooster,OH,44691,(330) 287-5633,,https://maps.google.com/?cid=11199240889941753722,,,
Wayne County Common Pleas Court,establishment,"107 W Liberty St, Wooster, OH 44691, USA",40.7984319,-81.94022,Wooster,OH,44691,(330) 287-5590,http://www.waynecourts.org/,https://maps.google.com/?cid=162635781565733977,,,
E&H Plumbing & Handyman,establishment,"115 S Market St, Wooster, OH 44691, USA",40.79763419999999,-81.94021500000001,Wooster,OH,44691,(330) 262-8821,https://plumbing.ehhardware.com/,https://maps.google.com/?cid=7007884935521569845,,,
Community Action Wayne/Medina,establishment,"905 Pittsburgh Ave, Wooster, OH 44691, USA",40.7976228,-81.9273098,Wooster,OH,44691,(330) 264-8677,http://www.cawm.org/,https://maps.google.com/?cid=2732941636340451612,,,
Beef 'O' Brady's,establishment,"244 S Market St, Wooster, OH 44691, USA",40.7960151,-81.93896579999999,Wooster,OH,44691,(330) 264-2226,https://www.beefobradys.com/wooster,https://maps.google.com/?cid=14081232456711812118,,,
The City Square Steakhouse,establishment,"140 S Market St, Wooster, OH 44691, USA",40.79747159999999,-81.9393979,Wooster,OH,44691,(330) 262-2489,https://www.citysquaresteakhouse.com/,https://maps.google.com/?cid=4157698552974798176,,,
Wayne County Board-Elections,establishment,"200 Vanover St, Wooster, OH 44691, USA",40.79664669999999,-81.9479411,Wooster,OH,44691,(330) 287-5480,http://waynecountyoh.gov/,https://maps.google.com/?cid=14239346676362587050,,,
Wayne County Probation Department,establishment,"215 N Grant St, Wooster, OH 44691, USA",40.7991569,-81.9428677,Wooster,OH,44691,(330) 287-5672,https://www.waynemunicipalcourt.org/adult-probation/,https://maps.google.com/?cid=2248371768198855314,,,
Muddy's,establishment,"335 E Liberty St, Wooster, OH 44691, USA",40.798621,-81.93562849999999,Wooster,OH,44691,(330) 264-2604,https://www.muddyswooster.net/,https://maps.google.com/?cid=15182309109801276021,,,
C. W. Burgerstein’s,establishment,"359 W Liberty St, Wooster, OH 44691, USA",40.79767469999999,-81.94467120000002,Wooster,OH,44691,(330) 264-8165,http://www.tjsrestaurants.com/,https://maps.google.com/?cid=11029082919114755576,,,
Catholic Charities Wayne County,establishment,"521 Beall Ave, Wooster, OH 44691, USA",40.8042496,-81.9340004,Wooster,OH,44691,(330) 262-7836,https://ccdocle.org/wayne,https://maps.google.com/?cid=1646962062570314441,,,
Bishops Restaurant,establishment,"1638 Old Columbus Rd, Wooster, OH 44691, USA",40.777892,-81.963574,Wooster,OH,44691,(330) 601-0204,https://bishopsfamilyrestaurant0140.s4shops.com/,https://maps.google.com/?cid=11338041549518276985,,,
Wayne County Veterans Services,establishment,"356 W North St, Wooster, OH 44691, USA",40.7985274,-81.9447745,Wooster,OH,44691,(330) 345-6638,https://dvs.ohio.gov/what-we-do/find-a-cvso/Wayne+County+Veterans+Service+Office,https://maps.google.com/?cid=7277740677571473176,,,
Wayne County Emergency Management,establishment,"201 W North St, Wooster, OH 44691, USA",40.79941090000001,-81.94247279999999,Wooster,OH,44691,(330) 262-9817,http://www.waynecountysheriff.com/,https://maps.google.com/?cid=894385403727575946,,,
Wayne County Outdoor Service's LLC,establishment,"7726 Fox Lake Rd, Sterling, OH 44276, USA",40.8887911,-81.8338139,Sterling,OH,44276,(330) 466-2134,http://waynecountyoutdoorservicesllc.com/?utm_source=gmb&utm_medium=referral,https://maps.google.com/?cid=17241188947382033392,,,
Local Roots Market & Café,establishment,"140 S Walnut St, Wooster, OH 44691, USA",40.79722220000001,-81.9411111,Wooster,OH,44691,(330) 263-5336,http://www.localrootswooster.com/,https://maps.google.com/?cid=7424488131517633858,,,
OH-YO! Frozen Yogurt,establishment,"4182 Burbank Rd C, Wooster, OH 44691, USA",40.84997440000001,-81.9487683,Wooster,OH,44691,(330) 345-1012,,https://maps.google.com/?cid=9355327625968823282,,,
Wayne County Democratic Party,establishment,"503 E Liberty St, Wooster, OH 44691, USA",40.79871529999999,-81.9339073,Wooster,OH,44691,(330) 264-8683,http://www.waynedemocrats.org/,https://maps.google.com/?cid=1252920566802583532,,,
Wayne County Soil and Water Conservation District,establishment,"428 W Liberty St, Wooster, OH 44691, USA",40.7970787,-81.9468881,Wooster,OH,44691,(330) 263-5376,http://www.wayneswcd.org/,https://maps.google.com/?cid=2855444388939568054,,,
Wayne County Judge's Office,establishment,"215 N Grant St, Wooster, OH 44691, USA",40.7992815,-81.9430046,Wooster,OH,44691,(330) 287-5663,,https://maps.google.com/?cid=4718508529090964288,,,
Wayne County Speedway,establishment,"1083 N Carr Rd, Orrville, OH 44667, USA",40.81041039999999,-81.7830366,Orrville,OH,44667,(330) 465-2258,http://www.waynecountyspeedway.com/,https://maps.google.com/?cid=16735708563620144161,,,
Wayne County Victim/Witness Asst,establishment,"115 W Liberty St, Wooster, OH 44691, USA",40.7982307,-81.9404235,Wooster,OH,44691,(330) 262-2070,,https://maps.google.com/?cid=12925654220510663638,,,
Wayne County Municipal Court,establishment,"215 N Grant St, Wooster, OH 44691, USA",40.7993183,-81.94308889999999,Wooster,OH,44691,(330) 287-5650,http://www.waynecourts.org/,https://maps.google.com/?cid=3682547846415629075,,,
Hero House,establishment,"141 N Bever St, Wooster, OH 44691, USA",40.7995858,-81.93683519999999,Wooster,OH,44691,(330) 262-8166,,https://maps.google.com/?cid=14246113026235298020,,,
